{
"type": "FeatureCollection",
"name": "xa_cambuchia",
"crs": { "type": "name", "properties": { "name": "urn:ogc:def:crs:OGC:1.3:CRS84" } },
"features": [
{ "type": "Feature", "properties": { "ID_0": 40, "ISO": "KHM", "NAME_0": "Cambodia", "ID_1": 7, "NAME_1": "Kâmpóng Thum", "ID_2": 58, "NAME_2": "Santuk", "ID_3": 537, "NAME_3": "Kraya", "TYPE_3": "Khum", "ENGTYPE_3": "Commune", "NL_NAME_3": null, "VARNAME_3": null }, "geometry": { "type": "MultiPolygon", "coordinates": [ [ [ [ 105.378471374511719, 12.486400604248161 ], [ 105.377929687500057, 12.486820220947209 ], [ 105.377639770507756, 12.48705101013195 ], [ 105.37741851806652, 12.487451553344783 ], [ 105.377571105957088, 12.487810134887752 ], [ 105.37786865234375, 12.488051414489689 ], [ 105.378227233886662, 12.48828125 ], [ 105.378799438476506, 12.488671302795353 ], [ 105.379302978515682, 12.488971710205078 ], [ 105.379661560058651, 12.489299774169865 ], [ 105.379966735839844, 12.489740371704158 ], [ 105.379951477050781, 12.490471839904842 ], [ 105.379859924316463, 12.490829467773494 ], [ 105.379661560058651, 12.491291999816895 ], [ 105.37912750244152, 12.491721153259277 ], [ 105.378829956054688, 12.491930007934513 ], [ 105.378295898437557, 12.492059707641658 ], [ 105.377639770507756, 12.491959571838379 ], [ 105.376792907714901, 12.491721153259277 ], [ 105.375785827636719, 12.491280555725211 ], [ 105.375160217285099, 12.491021156311035 ], [ 105.373977661132926, 12.490639686584473 ], [ 105.372947692871094, 12.490731239318961 ], [ 105.372108459472599, 12.491041183471793 ], [ 105.371856689453182, 12.491419792175293 ], [ 105.371849060058651, 12.491979598999137 ], [ 105.371749877929688, 12.492820739746207 ], [ 105.371643066406307, 12.494000434875545 ], [ 105.371688842773551, 12.495180130004826 ], [ 105.371788024902344, 12.496039390564079 ], [ 105.371818542480526, 12.496319770813045 ], [ 105.371749877929688, 12.496690750122013 ], [ 105.37139892578125, 12.496801376342717 ], [ 105.370979309081974, 12.496838569641113 ], [ 105.370208740234318, 12.496980667114315 ], [ 105.369018554687614, 12.497230529785099 ], [ 105.367820739746151, 12.497441291809139 ], [ 105.367111206054801, 12.49767971038824 ], [ 105.366981506347656, 12.497940063476676 ], [ 105.367141723632926, 12.498190879821777 ], [ 105.367347717285099, 12.498410224914608 ], [ 105.367782592773438, 12.498900413513297 ], [ 105.368431091308651, 12.499520301818961 ], [ 105.368911743164063, 12.500201225280762 ], [ 105.369262695312443, 12.500591278076172 ], [ 105.369171142578182, 12.501139640808105 ], [ 105.369140625000057, 12.501411437988224 ], [ 105.369071960449162, 12.501900672912654 ], [ 105.368919372558594, 12.502721786499023 ], [ 105.368591308593807, 12.503259658813533 ], [ 105.368278503418082, 12.504059791565055 ], [ 105.3677978515625, 12.504781723022575 ], [ 105.367637634277401, 12.505001068115234 ], [ 105.367622375488338, 12.506039619445858 ], [ 105.367927551269474, 12.506560325622559 ], [ 105.368232727050838, 12.507061004638672 ], [ 105.368736267089844, 12.507221221923942 ], [ 105.369758605957088, 12.507401466369629 ], [ 105.370651245117188, 12.507280349731502 ], [ 105.371261596679744, 12.507190704345817 ], [ 105.372398376464901, 12.507670402526912 ], [ 105.372673034668082, 12.507831573486328 ], [ 105.373268127441349, 12.508579254150334 ], [ 105.373680114746094, 12.509181022644043 ], [ 105.374229431152344, 12.509930610656681 ], [ 105.374580383300895, 12.510450363159237 ], [ 105.374832153320313, 12.511339187622184 ], [ 105.374908447265682, 12.512147903442326 ], [ 105.375488281250057, 12.513010025024471 ], [ 105.376052856445369, 12.513520240783691 ], [ 105.376647949218864, 12.514051437377987 ], [ 105.376708984375, 12.514499664306641 ], [ 105.376052856445369, 12.515451431274414 ], [ 105.375633239746151, 12.516030311584529 ], [ 105.37534332275402, 12.516629219055176 ], [ 105.374877929687557, 12.517171859741325 ], [ 105.374252319335938, 12.517411231994743 ], [ 105.373420715332145, 12.517218589782658 ], [ 105.372428894043026, 12.5168714523316 ], [ 105.371841430664119, 12.516599655151481 ], [ 105.371406555175781, 12.516830444336051 ], [ 105.370880126953182, 12.516909599304313 ], [ 105.370269775390625, 12.517039299011287 ], [ 105.369628906249943, 12.516950607299862 ], [ 105.369468688964844, 12.516670227050724 ], [ 105.369316101074219, 12.515761375427246 ], [ 105.36923980712902, 12.514661788940487 ], [ 105.369346618652401, 12.513869285583553 ], [ 105.368911743164063, 12.512209892272949 ], [ 105.3685302734375, 12.512129783630371 ], [ 105.367378234863281, 12.512498855590934 ], [ 105.366470336914119, 12.512991905212516 ], [ 105.366111755371151, 12.513331413269043 ], [ 105.36521148681652, 12.513900756835994 ], [ 105.364768981933651, 12.514200210571403 ], [ 105.363777160644531, 12.514051437377987 ], [ 105.36331939697277, 12.513479232788143 ], [ 105.362892150878963, 12.512800216674918 ], [ 105.362075805664063, 12.512090682983398 ], [ 105.361618041992131, 12.511870384216422 ], [ 105.361106872558594, 12.512372016906852 ], [ 105.361106872558594, 12.513461112976188 ], [ 105.361259460449219, 12.51438045501709 ], [ 105.361366271972713, 12.515191078186035 ], [ 105.361656188964844, 12.515681266784725 ], [ 105.362228393554688, 12.516192436218262 ], [ 105.362556457519645, 12.516640663147029 ], [ 105.362762451171818, 12.517629623413086 ], [ 105.362838745117188, 12.518170356750488 ], [ 105.362640380859375, 12.518659591674862 ], [ 105.362541198730582, 12.519651412963981 ], [ 105.362640380859375, 12.520021438598633 ], [ 105.362831115722656, 12.5202894210816 ], [ 105.363159179687443, 12.520700454712028 ], [ 105.363166809082031, 12.521540641784668 ], [ 105.363098144531364, 12.522391319274902 ], [ 105.362747192382926, 12.522732734680176 ], [ 105.362319946289119, 12.522760391235408 ], [ 105.361808776855412, 12.522750854492301 ], [ 105.361259460449219, 12.522601127624569 ], [ 105.360908508300781, 12.522211074829215 ], [ 105.360687255859375, 12.521658897399902 ], [ 105.360519409179688, 12.520540237426701 ], [ 105.360466003418082, 12.519610404968205 ], [ 105.360443115234489, 12.518490791320914 ], [ 105.360153198242188, 12.517901420593205 ], [ 105.359611511230526, 12.517470359802246 ], [ 105.358718872070426, 12.516929626464844 ], [ 105.357879638671875, 12.516171455383414 ], [ 105.357192993164176, 12.515810966491699 ], [ 105.356361389160213, 12.514751434326229 ], [ 105.355941772460938, 12.514189720153809 ], [ 105.355712890624943, 12.514399528503475 ], [ 105.355491638183707, 12.514809608459473 ], [ 105.355079650878963, 12.51630973815918 ], [ 105.354919433593864, 12.517121315002441 ], [ 105.354736328125114, 12.518121719360352 ], [ 105.354492187500057, 12.51887035369873 ], [ 105.354393005371094, 12.519861221313533 ], [ 105.354179382324162, 12.5202894210816 ], [ 105.354148864746207, 12.521470069885197 ], [ 105.353950500488395, 12.522071838378906 ], [ 105.353767395019645, 12.522529602050838 ], [ 105.353546142578182, 12.523160934448242 ], [ 105.353363037109432, 12.52401065826416 ], [ 105.352500915527344, 12.524841308593864 ], [ 105.352737426757869, 12.525481224060059 ], [ 105.353179931640739, 12.526101112365723 ], [ 105.353569030761832, 12.526770591735783 ], [ 105.354080200195369, 12.527550697326774 ], [ 105.354011535644531, 12.527950286865291 ], [ 105.353736877441463, 12.528370857238826 ], [ 105.353607177734318, 12.528590202331543 ], [ 105.353126525878963, 12.528760910034237 ], [ 105.351776123046875, 12.52863979339611 ], [ 105.350830078125057, 12.528329849243278 ], [ 105.350273132324276, 12.528081893920842 ], [ 105.348892211914063, 12.527462005615178 ], [ 105.347732543945313, 12.526640892028809 ], [ 105.347061157226619, 12.526330947875977 ], [ 105.346061706543026, 12.52610969543457 ], [ 105.345100402832031, 12.525971412658748 ], [ 105.344352722168026, 12.526000976562614 ], [ 105.344306945800781, 12.525551795959529 ], [ 105.344512939453125, 12.52489089965826 ], [ 105.344589233398494, 12.523911476135368 ], [ 105.344589233398494, 12.523321151733398 ], [ 105.344009399414119, 12.522670745849723 ], [ 105.34348297119152, 12.522770881652832 ], [ 105.343017578125057, 12.523049354553223 ], [ 105.342559814453068, 12.523949623107853 ], [ 105.342262268066463, 12.524741172790584 ], [ 105.342231750488281, 12.525941848754883 ], [ 105.341987609863224, 12.527039527893066 ], [ 105.341842651367188, 12.52777194976801 ], [ 105.341308593750057, 12.528549194335938 ], [ 105.34079742431652, 12.528731346130371 ], [ 105.339988708496151, 12.528861045837346 ], [ 105.339965820312557, 12.528182029724178 ], [ 105.339859008789176, 12.526901245117244 ], [ 105.339576721191463, 12.526310920715446 ], [ 105.338783264160156, 12.526602745056152 ], [ 105.338157653808537, 12.526789665222225 ], [ 105.337165832519645, 12.527099609375057 ], [ 105.336189270019588, 12.527330398559627 ], [ 105.335632324218864, 12.527509689330998 ], [ 105.334762573242188, 12.527730941772461 ], [ 105.333427429199219, 12.527718544006461 ], [ 105.332511901855469, 12.527560234069881 ], [ 105.33109283447277, 12.527462005615178 ], [ 105.330039978027401, 12.527170181274528 ], [ 105.329620361328125, 12.527111053466797 ], [ 105.329132080078182, 12.527780532836857 ], [ 105.328697204589844, 12.52848052978527 ], [ 105.328018188476676, 12.529501914978027 ], [ 105.327713012695313, 12.529411315918082 ], [ 105.327583312988338, 12.530490875244254 ], [ 105.327072143554801, 12.530611991882381 ], [ 105.326347351074162, 12.530562400817985 ], [ 105.32572174072277, 12.529900550842285 ], [ 105.325340270996207, 12.528949737548942 ], [ 105.325218200683594, 12.527750968933162 ], [ 105.325241088867188, 12.525859832763729 ], [ 105.325408935546875, 12.525151252746696 ], [ 105.32553863525402, 12.524679183959961 ], [ 105.326011657714844, 12.52424144744873 ], [ 105.326896667480582, 12.523790359497013 ], [ 105.327728271484375, 12.523329734802189 ], [ 105.328460693359375, 12.522900581359806 ], [ 105.328552246093807, 12.522639274597282 ], [ 105.328277587890625, 12.522190093994197 ], [ 105.327781677246151, 12.521560668945369 ], [ 105.327026367187557, 12.521320343017692 ], [ 105.326370239257813, 12.521658897399902 ], [ 105.325569152831974, 12.522190093994197 ], [ 105.3248291015625, 12.522549629211426 ], [ 105.324447631835938, 12.522670745849723 ], [ 105.323722839355469, 12.522770881652832 ], [ 105.323249816894645, 12.522931098937988 ], [ 105.322677612304801, 12.522732734680176 ], [ 105.321762084960881, 12.522890090942383 ], [ 105.321342468261832, 12.523019790649357 ], [ 105.32096099853527, 12.523439407348633 ], [ 105.320877075195313, 12.524111747741756 ], [ 105.321166992187614, 12.524751663208008 ], [ 105.321449279785156, 12.525469779968375 ], [ 105.321868896484432, 12.526081085205192 ], [ 105.322021484375, 12.526860237121696 ], [ 105.322082519531307, 12.527660369873047 ], [ 105.322090148925895, 12.528510093688965 ], [ 105.321876525878963, 12.528929710388184 ], [ 105.321510314941463, 12.529631614685002 ], [ 105.321121215820369, 12.529971122741699 ], [ 105.320487976074219, 12.530211448669434 ], [ 105.319847106933537, 12.53040885925293 ], [ 105.319107055664063, 12.53081035614025 ], [ 105.318748474121094, 12.530900955200195 ], [ 105.317901611328239, 12.531020164489746 ], [ 105.316482543945313, 12.530931472778377 ], [ 105.315795898437614, 12.530779838562069 ], [ 105.314987182617244, 12.53020095825201 ], [ 105.314453125000057, 12.529700279235897 ], [ 105.314018249511776, 12.529011726379338 ], [ 105.313537597656364, 12.528211593628043 ], [ 105.312927246093807, 12.527250289917049 ], [ 105.312179565429801, 12.526530265808105 ], [ 105.311203002929744, 12.525851249694938 ], [ 105.310317993164006, 12.525489807128906 ], [ 105.309707641601676, 12.525190353393668 ], [ 105.30912017822277, 12.524787902832088 ], [ 105.308563232421989, 12.524669647216854 ], [ 105.308052062988281, 12.524710655212402 ], [ 105.307502746582031, 12.524800300598088 ], [ 105.307350158691463, 12.525079727172965 ], [ 105.307518005371094, 12.525650024414006 ], [ 105.307708740234375, 12.526220321655273 ], [ 105.308120727539119, 12.527191162109375 ], [ 105.308670043945313, 12.528141021728572 ], [ 105.308959960937614, 12.52863979339611 ], [ 105.309082031250057, 12.529200553894043 ], [ 105.308959960937614, 12.529951095581168 ], [ 105.308792114257756, 12.530632019042969 ], [ 105.308380126953239, 12.531169891357479 ], [ 105.307487487792969, 12.531190872192496 ], [ 105.307212829589957, 12.52985954284668 ], [ 105.306907653808594, 12.529269218444881 ], [ 105.306159973144531, 12.529290199279728 ], [ 105.305511474609489, 12.529680252075309 ], [ 105.305000305175781, 12.530061721801871 ], [ 105.304130554199276, 12.530490875244254 ], [ 105.302726745605469, 12.530741691589355 ], [ 105.301818847656307, 12.530570983886832 ], [ 105.301071166992244, 12.530261039734 ], [ 105.300743103027457, 12.529971122741699 ], [ 105.300102233886776, 12.529021263122672 ], [ 105.299530029296932, 12.528211593628043 ], [ 105.299087524414063, 12.527539253234863 ], [ 105.298103332519474, 12.527601242065487 ], [ 105.297561645507813, 12.528040885925293 ], [ 105.29718017578125, 12.528611183166561 ], [ 105.296348571777457, 12.529060363769645 ], [ 105.295501708984375, 12.529290199279728 ], [ 105.294990539550838, 12.52948093414301 ], [ 105.294189453125057, 12.529790878295842 ], [ 105.2935791015625, 12.530190467834586 ], [ 105.293746948242188, 12.530650138855094 ], [ 105.29386138916027, 12.53126144409174 ], [ 105.294067382812614, 12.532341957092228 ], [ 105.294212341308651, 12.533180236816463 ], [ 105.294242858886832, 12.533950805664119 ], [ 105.294212341308651, 12.534401893615836 ], [ 105.293838500976619, 12.534349441528377 ], [ 105.292869567871151, 12.534249305725041 ], [ 105.29215240478527, 12.534131050109977 ], [ 105.290946960449276, 12.533880233764705 ], [ 105.290031433105526, 12.533681869506893 ], [ 105.289093017578239, 12.533410072326717 ], [ 105.288108825683651, 12.533170700073356 ], [ 105.287879943847656, 12.53292274475109 ], [ 105.288223266601563, 12.531881332397404 ], [ 105.289237976074276, 12.530700683593807 ], [ 105.289657592773494, 12.529979705810547 ], [ 105.289627075195369, 12.529460906982479 ], [ 105.289276123046932, 12.528910636901969 ], [ 105.288322448730526, 12.52783107757574 ], [ 105.287666320800781, 12.527199745178166 ], [ 105.286979675293026, 12.52709007263195 ], [ 105.286102294921818, 12.527240753173942 ], [ 105.285400390625, 12.527539253234863 ], [ 105.283958435058707, 12.528229713439998 ], [ 105.282669067382756, 12.528719902038688 ], [ 105.281852722168082, 12.529179573059196 ], [ 105.280807495117188, 12.529610633850154 ], [ 105.280136108398551, 12.529582023620605 ], [ 105.279418945312443, 12.529680252075309 ], [ 105.278221130371207, 12.529690742492733 ], [ 105.277786254882869, 12.530039787292537 ], [ 105.277122497558537, 12.530710220336914 ], [ 105.276512145996207, 12.53126144409174 ], [ 105.275856018066406, 12.531650543212834 ], [ 105.275177001953239, 12.531889915466422 ], [ 105.27490234375, 12.531899452209529 ], [ 105.274017333984432, 12.532099723815975 ], [ 105.273490905761832, 12.532279968261832 ], [ 105.273246765136776, 12.532860755920524 ], [ 105.272972106933594, 12.533519744873161 ], [ 105.272811889648438, 12.533991813659725 ], [ 105.272506713867301, 12.534190177917537 ], [ 105.272010803222656, 12.534100532531852 ], [ 105.270797729492301, 12.533490180969295 ], [ 105.270080566406193, 12.53291130065918 ], [ 105.269416809082088, 12.532370567321834 ], [ 105.268791198730469, 12.531801223754826 ], [ 105.268058776855526, 12.531181335449162 ], [ 105.267417907714844, 12.530550003051815 ], [ 105.266418457031364, 12.529751777649039 ], [ 105.265617370605526, 12.529121398925781 ], [ 105.264999389648494, 12.528811454772949 ], [ 105.263809204101563, 12.528559684753532 ], [ 105.263069152832031, 12.52838039398199 ], [ 105.262496948242188, 12.528040885925293 ], [ 105.261932373046875, 12.527750968933162 ], [ 105.261116027831974, 12.527219772338924 ], [ 105.260932922363281, 12.526860237121696 ], [ 105.261047363281307, 12.526150703430119 ], [ 105.261558532714844, 12.52544021606451 ], [ 105.262413024902457, 12.524539947509879 ], [ 105.263046264648438, 12.523530006408805 ], [ 105.264091491699276, 12.522350311279297 ], [ 105.265037536621151, 12.521051406860408 ], [ 105.265502929687443, 12.519890785217399 ], [ 105.265449523925895, 12.518969535827694 ], [ 105.265083312988395, 12.518349647522029 ], [ 105.264717102050895, 12.517939567565918 ], [ 105.263992309570313, 12.518121719360352 ], [ 105.262962341308707, 12.518931388855037 ], [ 105.262260437011662, 12.519830703735352 ], [ 105.261749267578125, 12.520719528198299 ], [ 105.261558532714844, 12.521369934082088 ], [ 105.261306762695256, 12.522391319274902 ], [ 105.260917663574162, 12.523839950561637 ], [ 105.260612487793026, 12.524531364441032 ], [ 105.260261535644588, 12.524870872497559 ], [ 105.259910583496207, 12.525100708007813 ], [ 105.259300231933651, 12.525289535522518 ], [ 105.258491516113281, 12.525579452514762 ], [ 105.257400512695369, 12.525750160217342 ], [ 105.256546020507813, 12.525910377502441 ], [ 105.255340576171989, 12.525810241699332 ], [ 105.254020690918082, 12.525340080261174 ], [ 105.252708435058537, 12.524800300598088 ], [ 105.250495910644531, 12.523961067199764 ], [ 105.250259399414063, 12.523470878601074 ], [ 105.250839233398438, 12.522670745849723 ], [ 105.251312255859432, 12.521709442138786 ], [ 105.250930786132869, 12.521181106567383 ], [ 105.250389099121207, 12.521230697631836 ], [ 105.249809265136832, 12.521369934082088 ], [ 105.249320983886719, 12.521720886230526 ], [ 105.249069213867301, 12.522491455078182 ], [ 105.248588562011719, 12.523749351501465 ], [ 105.247940063476506, 12.526169776916561 ], [ 105.247642517089901, 12.526419639587402 ], [ 105.247276306152401, 12.5263414382934 ], [ 105.24700927734375, 12.526351928711051 ], [ 105.246749877929801, 12.525989532470703 ], [ 105.246536254882869, 12.525691032409782 ], [ 105.246261596679688, 12.524751663208008 ], [ 105.245811462402457, 12.523280143737793 ], [ 105.245582580566463, 12.52279186248785 ], [ 105.245216369628963, 12.521240234375114 ], [ 105.244819641113338, 12.520630836486873 ], [ 105.244552612304688, 12.52046012878418 ], [ 105.244262695312557, 12.520351409912223 ], [ 105.243812561035156, 12.520271301269645 ], [ 105.243392944335938, 12.520380973815861 ], [ 105.243057250976563, 12.520581245422477 ], [ 105.242706298828182, 12.520820617675895 ], [ 105.242736816406307, 12.521381378173828 ], [ 105.242851257324219, 12.521991729736328 ], [ 105.243057250976563, 12.522990226745719 ], [ 105.243400573730469, 12.523669242858887 ], [ 105.243652343750057, 12.5242214202882 ], [ 105.243881225585994, 12.524741172790584 ], [ 105.243812561035156, 12.525071144104118 ], [ 105.24295806884777, 12.5259304046632 ], [ 105.242752075195426, 12.526081085205192 ], [ 105.242286682128906, 12.526261329650879 ], [ 105.241500854492188, 12.526661872863883 ], [ 105.241043090820426, 12.526960372924805 ], [ 105.240303039550895, 12.527462005615178 ], [ 105.239288330078182, 12.527681350708065 ], [ 105.238502502441463, 12.527890205383301 ], [ 105.237571716308651, 12.528239250183105 ], [ 105.236480712890739, 12.528430938720703 ], [ 105.235099792480526, 12.528370857238826 ], [ 105.234512329101619, 12.528229713439998 ], [ 105.233078002929631, 12.528100013733024 ], [ 105.232521057128906, 12.527970314025879 ], [ 105.231712341308707, 12.527750968933162 ], [ 105.231491088867301, 12.527970314025879 ], [ 105.231239318847713, 12.528350830078125 ], [ 105.230941772461051, 12.528811454772949 ], [ 105.230560302734489, 12.529310226440487 ], [ 105.230262756347656, 12.529470443725586 ], [ 105.22959136962902, 12.529911994934196 ], [ 105.229026794433707, 12.530369758605957 ], [ 105.228408813476619, 12.530830383300781 ], [ 105.227912902831974, 12.531181335449162 ], [ 105.227371215820313, 12.53157997131359 ], [ 105.227188110351563, 12.531801223754826 ], [ 105.226921081543082, 12.532119750976506 ], [ 105.226730346679801, 12.532429695129338 ], [ 105.226409912109375, 12.533080101013184 ], [ 105.226142883300838, 12.533980369567985 ], [ 105.226058959960938, 12.534520149231071 ], [ 105.225639343261662, 12.535380363464412 ], [ 105.225189208984432, 12.535850524902401 ], [ 105.224441528320426, 12.53640079498291 ], [ 105.224037170410213, 12.536650657653922 ], [ 105.223686218261832, 12.536830902099609 ], [ 105.223075866699276, 12.53722953796381 ], [ 105.222633361816406, 12.537611007690373 ], [ 105.222335815429801, 12.537770271301213 ], [ 105.221427917480412, 12.538780212402457 ], [ 105.220832824707145, 12.539231300354004 ], [ 105.220611572265682, 12.539390563964844 ], [ 105.220199584960994, 12.539730072021484 ], [ 105.219535827636662, 12.540451049804744 ], [ 105.219383239746094, 12.54071140289318 ], [ 105.21909332275402, 12.541440010070801 ], [ 105.218742370605582, 12.541971206665039 ], [ 105.218467712402401, 12.542640686035156 ], [ 105.218116760253963, 12.543440818786678 ], [ 105.217956542968864, 12.543850898742789 ], [ 105.21746826171875, 12.544421195983887 ], [ 105.216873168945313, 12.544749259948844 ], [ 105.216133117675781, 12.545020103454704 ], [ 105.215721130371037, 12.545001983642521 ], [ 105.215446472168026, 12.544880867004395 ], [ 105.215057373046932, 12.544400215149039 ], [ 105.21539306640625, 12.543460845947379 ], [ 105.2159423828125, 12.54281044006359 ], [ 105.216293334960881, 12.54208946228033 ], [ 105.216598510742244, 12.541341781616268 ], [ 105.216819763183707, 12.540849685669002 ], [ 105.217033386230582, 12.540060997009391 ], [ 105.217308044433594, 12.53961181640625 ], [ 105.2176513671875, 12.539051055908317 ], [ 105.217948913574332, 12.538201332092399 ], [ 105.218399047851563, 12.537481307983398 ], [ 105.218711853027457, 12.536820411682186 ], [ 105.218643188476563, 12.536531448364371 ], [ 105.218437194824219, 12.536141395568961 ], [ 105.217910766601619, 12.535458564758414 ], [ 105.217239379882756, 12.534741401672363 ], [ 105.216796875000057, 12.534520149231071 ], [ 105.216209411621151, 12.534321784973258 ], [ 105.215629577636776, 12.534249305725041 ], [ 105.215171813964844, 12.534641265869197 ], [ 105.214881896972713, 12.534811973571777 ], [ 105.213493347167969, 12.535220146179313 ], [ 105.213020324707145, 12.535530090332145 ], [ 105.212280273437443, 12.535759925842399 ], [ 105.211578369140625, 12.535831451416129 ], [ 105.210960388183594, 12.535821914672852 ], [ 105.210319519043082, 12.535720825195426 ], [ 105.209442138671875, 12.535290718078556 ], [ 105.208740234375057, 12.534520149231071 ], [ 105.208152770996094, 12.533880233764705 ], [ 105.205940246582145, 12.534059524536246 ], [ 105.2047119140625, 12.534440994262809 ], [ 105.203071594238395, 12.534931182861328 ], [ 105.201499938964901, 12.535380363464412 ], [ 105.199829101562614, 12.536020278930664 ], [ 105.197357177734489, 12.537130355835018 ], [ 105.195556640625, 12.538160324096793 ], [ 105.194335937500114, 12.539018630981559 ], [ 105.192489624023438, 12.5394802093507 ], [ 105.190689086914176, 12.539949417114371 ], [ 105.187942504882869, 12.540920257568416 ], [ 105.184570312500114, 12.54363918304449 ], [ 105.182487487793082, 12.545911788940487 ], [ 105.181121826171932, 12.547930717468319 ], [ 105.181098937988338, 12.590030670166016 ], [ 105.181701660156307, 12.590311050415153 ], [ 105.182579040527344, 12.590851783752555 ], [ 105.183380126953182, 12.590670585632381 ], [ 105.18399810791027, 12.590231895446891 ], [ 105.184829711914063, 12.589950561523438 ], [ 105.185852050781307, 12.590061187744141 ], [ 105.187019348144588, 12.590559959411678 ], [ 105.187629699707145, 12.590781211853084 ], [ 105.188461303710938, 12.591201782226676 ], [ 105.188758850097713, 12.591840744018555 ], [ 105.189392089843693, 12.592580795288086 ], [ 105.189781188964787, 12.592570304870662 ], [ 105.190193176269531, 12.592211723327694 ], [ 105.190910339355412, 12.591799736023006 ], [ 105.191390991210994, 12.591760635376033 ], [ 105.192337036132869, 12.591421127319336 ], [ 105.193267822265625, 12.590801239013672 ], [ 105.193809509277344, 12.590681076049805 ], [ 105.19476318359375, 12.591091156005916 ], [ 105.195549011230469, 12.592109680175838 ], [ 105.196586608886832, 12.592870712280387 ], [ 105.197242736816406, 12.592829704284782 ], [ 105.198249816894588, 12.592100143432674 ], [ 105.198249816894588, 12.591091156005916 ], [ 105.197608947753906, 12.590319633484 ], [ 105.197250366210938, 12.589221954345817 ], [ 105.197067260742188, 12.588610649109 ], [ 105.196891784667969, 12.587910652160758 ], [ 105.197090148925781, 12.587211608886832 ], [ 105.197540283203239, 12.586560249328727 ], [ 105.198356628417912, 12.586010932922477 ], [ 105.199119567871037, 12.585460662841797 ], [ 105.199920654296875, 12.585089683532829 ], [ 105.201156616210994, 12.585050582885856 ], [ 105.201972961425724, 12.585261344909668 ], [ 105.202102661132869, 12.586010932922477 ], [ 105.202239990234375, 12.586400032043571 ], [ 105.203216552734432, 12.586570739746151 ], [ 105.204010009765682, 12.587288856506348 ], [ 105.205093383789063, 12.588470458984432 ], [ 105.206298828125057, 12.589240074157772 ], [ 105.207366943359375, 12.589591026306209 ], [ 105.208168029785213, 12.590140342712402 ], [ 105.208152770996094, 12.591540336608887 ], [ 105.207389831542969, 12.592020988464412 ], [ 105.206642150878963, 12.593001365661621 ], [ 105.206291198730526, 12.594051361083984 ], [ 105.206878662109432, 12.595110893249625 ], [ 105.207092285156364, 12.595740318298397 ], [ 105.206779479980469, 12.596652030944938 ], [ 105.207138061523381, 12.596830368042049 ], [ 105.207901000976506, 12.597171783447322 ], [ 105.208732604980526, 12.597140312194881 ], [ 105.209548950195369, 12.596419334411621 ], [ 105.210105895996151, 12.596990585327148 ], [ 105.210105895996151, 12.598080635070801 ], [ 105.21002197265625, 12.598939895629826 ], [ 105.209510803222713, 12.599721908569393 ], [ 105.209457397460938, 12.601010322570858 ], [ 105.209518432617244, 12.60210132598877 ], [ 105.21002197265625, 12.602370262146053 ], [ 105.210861206054744, 12.602040290832633 ], [ 105.211227416992244, 12.601511001586971 ], [ 105.211242675781307, 12.600811004638729 ], [ 105.211738586425781, 12.600778579711971 ], [ 105.211723327636719, 12.601160049438533 ], [ 105.211959838867188, 12.60145187377924 ], [ 105.212936401367244, 12.601519584655819 ], [ 105.213691711425838, 12.602130889892635 ], [ 105.214271545410213, 12.602830886840877 ], [ 105.214920043945426, 12.603749275207633 ], [ 105.214492797851619, 12.604371070861873 ], [ 105.214118957519588, 12.603949546814022 ], [ 105.213516235351619, 12.603591918945369 ], [ 105.212898254394531, 12.603780746460075 ], [ 105.212600708007869, 12.60435962677002 ], [ 105.212936401367244, 12.604669570922852 ], [ 105.213317871093807, 12.604941368103141 ], [ 105.213020324707145, 12.605251312255973 ], [ 105.213356018066463, 12.606041908264217 ], [ 105.213096618652344, 12.606320381164551 ], [ 105.213157653808651, 12.606871604919377 ], [ 105.213111877441406, 12.607181549072209 ], [ 105.212890625, 12.60775089263916 ], [ 105.213287353515625, 12.608260154724121 ], [ 105.213989257812443, 12.608770370483398 ], [ 105.213546752929744, 12.609431266784782 ], [ 105.212959289550838, 12.610139846801871 ], [ 105.213096618652344, 12.611231803894043 ], [ 105.213462829589844, 12.612140655517521 ], [ 105.213882446289119, 12.612881660461539 ], [ 105.213157653808651, 12.61378192901617 ], [ 105.212211608886776, 12.614060401916561 ], [ 105.211563110351563, 12.614680290222225 ], [ 105.211341857910156, 12.615341186523438 ], [ 105.211761474609375, 12.616090774536076 ], [ 105.211997985839901, 12.616669654846191 ], [ 105.212539672851563, 12.617099761962834 ], [ 105.213058471679688, 12.61790943145752 ], [ 105.212928771972713, 12.618640899658203 ], [ 105.212638854980582, 12.618611335754508 ], [ 105.211952209472656, 12.618850708007869 ], [ 105.211647033691463, 12.619278907775993 ], [ 105.211479187011832, 12.619771003723258 ], [ 105.21063232421875, 12.620861053466911 ], [ 105.209877014160213, 12.621932029724064 ], [ 105.209648132324219, 12.622410774231071 ], [ 105.210052490234375, 12.622851371765137 ], [ 105.209877014160213, 12.62312030792242 ], [ 105.209831237792969, 12.623721122741813 ], [ 105.209815979003906, 12.624240875244197 ], [ 105.209281921386719, 12.624450683593693 ], [ 105.209190368652457, 12.625129699707088 ], [ 105.209548950195369, 12.625880241394043 ], [ 105.209671020507813, 12.626649856567383 ], [ 105.20993804931652, 12.627080917358398 ], [ 105.209327697753963, 12.627630233764592 ], [ 105.209762573242301, 12.627930641174316 ], [ 105.2098388671875, 12.62904071807867 ], [ 105.210151672363395, 12.630201339721737 ], [ 105.210266113281307, 12.630539894104118 ], [ 105.209617614746037, 12.630221366882438 ], [ 105.209365844726676, 12.630521774291992 ], [ 105.209381103515739, 12.63131141662609 ], [ 105.209960937500114, 12.63261890411377 ], [ 105.209732055664119, 12.633361816406364 ], [ 105.209686279296932, 12.634330749511832 ], [ 105.208801269531364, 12.634309768676815 ], [ 105.2081298828125, 12.634250640869254 ], [ 105.208282470703068, 12.634939193725586 ], [ 105.207420349121151, 12.635140419006291 ], [ 105.207107543945426, 12.635721206665153 ], [ 105.207008361816406, 12.636201858520565 ], [ 105.207283020019645, 12.636700630188045 ], [ 105.207031250000057, 12.63728046417242 ], [ 105.206741333007756, 12.637681007385254 ], [ 105.206413269042969, 12.637851715088004 ], [ 105.206466674804744, 12.638360023498649 ], [ 105.206230163574219, 12.639010429382267 ], [ 105.205337524414119, 12.639829635620231 ], [ 105.204795837402457, 12.640030860900936 ], [ 105.204017639160213, 12.640011787414494 ], [ 105.203430175781307, 12.640030860900936 ], [ 105.202911376953239, 12.640110015869197 ], [ 105.202842712402401, 12.640621185302734 ], [ 105.202468872070369, 12.641031265258903 ], [ 105.202430725097656, 12.641460418701286 ], [ 105.201828002929688, 12.641762733459529 ], [ 105.201179504394645, 12.641941070556641 ], [ 105.200637817382756, 12.6423597335816 ], [ 105.201187133789176, 12.643340110778809 ], [ 105.201187133789176, 12.643791198730526 ], [ 105.200447082519474, 12.643889427185059 ], [ 105.199668884277457, 12.643799781799316 ], [ 105.199630737304744, 12.644571304321289 ], [ 105.198829650878963, 12.644651412963867 ], [ 105.198257446289119, 12.644620895385685 ], [ 105.198326110839957, 12.645090103149357 ], [ 105.197586059570256, 12.645111083984375 ], [ 105.196891784667969, 12.645211219787711 ], [ 105.196296691894531, 12.645039558410645 ], [ 105.195701599121094, 12.645501136779785 ], [ 105.194938659667969, 12.645950317382926 ], [ 105.194297790527457, 12.646029472351188 ], [ 105.193679809570369, 12.645999908447322 ], [ 105.193061828613281, 12.646290779113883 ], [ 105.193328857421932, 12.647121429443416 ], [ 105.192527770996151, 12.647111892700252 ], [ 105.19126129150402, 12.647370338439941 ], [ 105.190742492675781, 12.648289680481014 ], [ 105.189476013183651, 12.648620605468864 ], [ 105.188636779785099, 12.649069786071777 ], [ 105.188102722167969, 12.649541854858512 ], [ 105.188140869140682, 12.650199890136662 ], [ 105.187431335449332, 12.650530815124569 ], [ 105.186309814453239, 12.650690078735352 ], [ 105.186676025390739, 12.651681900024471 ], [ 105.186096191406364, 12.652079582214412 ], [ 105.186027526855469, 12.652800559997672 ], [ 105.186203002929688, 12.653249740600586 ], [ 105.185729980468864, 12.653249740600586 ], [ 105.18534088134777, 12.653930664062557 ], [ 105.185096740722713, 12.65465068817133 ], [ 105.184722900390682, 12.655161857605037 ], [ 105.183876037597656, 12.655980110168571 ], [ 105.183662414550724, 12.657231330871582 ], [ 105.184310913085938, 12.658141136169547 ], [ 105.185348510742301, 12.658479690551758 ], [ 105.18515777587902, 12.659010887145996 ], [ 105.185462951660213, 12.660088539123649 ], [ 105.186569213867188, 12.661130905151424 ], [ 105.187080383300895, 12.661890029907227 ], [ 105.186607360839901, 12.66271018981945 ], [ 105.186996459960994, 12.663880348205623 ], [ 105.188331604003963, 12.664489746093693 ], [ 105.189308166503963, 12.664451599121207 ], [ 105.191032409668026, 12.664120674133358 ], [ 105.192008972168082, 12.664300918579215 ], [ 105.192832946777287, 12.663749694824219 ], [ 105.19412994384777, 12.663400650024357 ], [ 105.194358825683537, 12.664551734924316 ], [ 105.194122314453239, 12.665981292724609 ], [ 105.19476318359375, 12.666170120239315 ], [ 105.195678710937443, 12.66637134552002 ], [ 105.195869445800724, 12.667029380798397 ], [ 105.196250915527287, 12.6675901412965 ], [ 105.1968994140625, 12.667660713195744 ], [ 105.197570800781364, 12.668111801147461 ], [ 105.19879150390625, 12.667719841003475 ], [ 105.199768066406307, 12.667551040649528 ], [ 105.200958251953182, 12.667551040649528 ], [ 105.20194244384777, 12.667959213256893 ], [ 105.202278137207088, 12.668989181518668 ], [ 105.202766418457031, 12.66941070556652 ], [ 105.203506469726506, 12.669379234314079 ], [ 105.203849792480582, 12.66859054565424 ], [ 105.204421997070426, 12.668339729309139 ], [ 105.204406738281364, 12.669479370117188 ], [ 105.204795837402457, 12.670099258422852 ], [ 105.205528259277401, 12.669611930847225 ], [ 105.206398010253906, 12.669010162353516 ], [ 105.207656860351676, 12.669180870056209 ], [ 105.208221435546989, 12.66986179351801 ], [ 105.209121704101619, 12.670899391174373 ], [ 105.209152221679744, 12.671630859375057 ], [ 105.210151672363395, 12.672160148620719 ], [ 105.210395812988281, 12.673231124877873 ], [ 105.210060119628906, 12.674810409545898 ], [ 105.210937499999943, 12.675090789794865 ], [ 105.212020874023494, 12.674490928649959 ], [ 105.2138671875, 12.675010681152344 ], [ 105.215332031249943, 12.675970077514705 ], [ 105.216445922851676, 12.677289962768555 ], [ 105.216377258300838, 12.678429603576774 ], [ 105.216430664062614, 12.679889678955078 ], [ 105.217277526855469, 12.680912017822322 ], [ 105.218009948730412, 12.681970596313477 ], [ 105.218467712402401, 12.683450698852539 ], [ 105.219772338867188, 12.684321403503475 ], [ 105.220397949218807, 12.684670448303279 ], [ 105.220458984375114, 12.686240196228027 ], [ 105.220932006835938, 12.687191009521541 ], [ 105.222602844238281, 12.687701225280762 ], [ 105.22357177734375, 12.68894100189209 ], [ 105.224037170410213, 12.690198898315373 ], [ 105.225257873535099, 12.690221786499023 ], [ 105.226669311523494, 12.690011978149471 ], [ 105.226898193359432, 12.691431999206657 ], [ 105.226608276367188, 12.692852020263672 ], [ 105.227867126464957, 12.693531036377067 ], [ 105.229827880859318, 12.694511413574219 ], [ 105.230377197265739, 12.695290565490723 ], [ 105.230659484863281, 12.696820259094352 ], [ 105.230781555175724, 12.698398590087891 ], [ 105.230957031250114, 12.699839591980094 ], [ 105.231590270996094, 12.700530052185002 ], [ 105.232719421386719, 12.700149536132926 ], [ 105.233970642089957, 12.700341224670524 ], [ 105.234741210937614, 12.700700759887752 ], [ 105.235061645507869, 12.701462745666561 ], [ 105.235237121582031, 12.702481269836483 ], [ 105.236312866210881, 12.703599929809684 ], [ 105.236846923828239, 12.704191207885742 ], [ 105.237998962402457, 12.704849243164119 ], [ 105.238349914550838, 12.705990791320914 ], [ 105.239677429199276, 12.706649780273381 ], [ 105.240776062011776, 12.706821441650447 ], [ 105.241546630859432, 12.707679748535213 ], [ 105.242477416992188, 12.708130836486873 ], [ 105.242980957031193, 12.709111213684082 ], [ 105.243415832519531, 12.710391998291016 ], [ 105.244346618652344, 12.711050987243652 ], [ 105.245018005371151, 12.710980415344238 ], [ 105.245681762695313, 12.710221290588436 ], [ 105.246391296386832, 12.710330963134879 ], [ 105.247200012207031, 12.710980415344238 ], [ 105.248252868652401, 12.711071014404354 ], [ 105.248748779296875, 12.711649894714469 ], [ 105.248947143554688, 12.712869644165039 ], [ 105.249412536621151, 12.713150024414063 ], [ 105.24961090087902, 12.71399974822998 ], [ 105.250747680664119, 12.714391708374137 ], [ 105.251296997070369, 12.715101242065487 ], [ 105.251846313476619, 12.716119766235408 ], [ 105.251991271972656, 12.717161178588867 ], [ 105.252021789550781, 12.718111991882438 ], [ 105.253150939941406, 12.719240188598746 ], [ 105.2542724609375, 12.720290184021053 ], [ 105.255187988281193, 12.721150398254451 ], [ 105.256202697753906, 12.721831321716422 ], [ 105.256362915039063, 12.722880363464469 ], [ 105.256851196289119, 12.724819183349723 ], [ 105.256912231445256, 12.726040840148869 ], [ 105.257575988769588, 12.727220535278377 ], [ 105.257560729980526, 12.728322029113713 ], [ 105.258590698242301, 12.72937107086176 ], [ 105.258789062500114, 12.730271339416618 ], [ 105.258468627929688, 12.731511116027946 ], [ 105.258819580078068, 12.732200622558537 ], [ 105.258567810058651, 12.732871055603084 ], [ 105.257957458496151, 12.733421325683594 ], [ 105.257888793945313, 12.734769821167049 ], [ 105.257759094238338, 12.735861778259277 ], [ 105.257972717285213, 12.73694038391119 ], [ 105.258201599121207, 12.737541198730412 ], [ 105.257728576660156, 12.738610267639217 ], [ 105.257926940917969, 12.739720344543571 ], [ 105.258918762207088, 12.740281105041504 ], [ 105.259307861328182, 12.741202354431152 ], [ 105.259368896484489, 12.742070198059082 ], [ 105.258743286132869, 12.742950439453125 ], [ 105.257926940917969, 12.743100166320858 ], [ 105.257827758789176, 12.743749618530387 ], [ 105.258079528808594, 12.744791030883903 ], [ 105.257637023925895, 12.745679855346793 ], [ 105.257553100585938, 12.746491432190055 ], [ 105.256782531738281, 12.747610092163029 ], [ 105.256401062011719, 12.748770713806096 ], [ 105.256401062011719, 12.749570846557617 ], [ 105.256729125976506, 12.750551223754996 ], [ 105.25714111328125, 12.751061439514274 ], [ 105.257537841796875, 12.751450538635368 ], [ 105.257797241210994, 12.752149581909293 ], [ 105.258041381836051, 12.752670288085938 ], [ 105.258041381836051, 12.753021240234375 ], [ 105.258079528808594, 12.753749847412166 ], [ 105.257888793945313, 12.754240036010856 ], [ 105.257797241210994, 12.754720687866211 ], [ 105.257843017578239, 12.755681037902889 ], [ 105.260650634765682, 12.755740165710392 ], [ 105.261116027831974, 12.755751609802303 ], [ 105.261436462402457, 12.756370544433651 ], [ 105.262168884277401, 12.757129669189453 ], [ 105.262580871582145, 12.757591247558594 ], [ 105.264205932617188, 12.75801944732666 ], [ 105.265632629394645, 12.758470535278377 ], [ 105.266632080078068, 12.758872032165641 ], [ 105.266998291015739, 12.759910583496094 ], [ 105.267433166503906, 12.759881019592228 ], [ 105.267967224121037, 12.759790420532227 ], [ 105.268341064453239, 12.760100364685059 ], [ 105.268775939941406, 12.759961128234977 ], [ 105.269546508789063, 12.759910583496094 ], [ 105.2701416015625, 12.759889602661246 ], [ 105.270706176757813, 12.760581016540641 ], [ 105.271392822265739, 12.760661125183219 ], [ 105.271980285644474, 12.760669708252067 ], [ 105.272956848144531, 12.76135063171381 ], [ 105.273086547851676, 12.761910438537654 ], [ 105.273040771484432, 12.762871742248592 ], [ 105.273529052734375, 12.764090538024902 ], [ 105.273681640625114, 12.764410018920898 ], [ 105.273635864257869, 12.765522003173828 ], [ 105.273590087890682, 12.765959739685059 ], [ 105.2742919921875, 12.766771316528263 ], [ 105.275138854980526, 12.767340660095215 ], [ 105.275596618652287, 12.76781272888195 ], [ 105.275810241699219, 12.768701553344727 ], [ 105.275917053222713, 12.769109725952262 ], [ 105.277572631835938, 12.770690917968864 ], [ 105.278678894042969, 12.77095985412609 ], [ 105.280296325683651, 12.770859718322811 ], [ 105.281578063964844, 12.770750999450684 ], [ 105.283088684082031, 12.770380973816032 ], [ 105.285888671875114, 12.770030021667594 ], [ 105.287948608398551, 12.770721435546989 ], [ 105.290138244628906, 12.771421432495231 ], [ 105.291763305664176, 12.772131919860897 ], [ 105.292541503906364, 12.772340774536133 ], [ 105.293220520019531, 12.773501396179199 ], [ 105.29331207275402, 12.774470329284668 ], [ 105.294166564941406, 12.775139808654728 ], [ 105.294769287109432, 12.775559425354004 ], [ 105.295791625976676, 12.776220321655217 ], [ 105.297210693359375, 12.776610374450797 ], [ 105.298332214355469, 12.776559829711914 ], [ 105.299072265624943, 12.776241302490234 ], [ 105.300025939941349, 12.775629997253418 ], [ 105.301536560058537, 12.775090217590332 ], [ 105.302719116210938, 12.77517032623291 ], [ 105.3031005859375, 12.775201797485352 ], [ 105.304618835449219, 12.776241302490234 ], [ 105.305557250976506, 12.77744197845459 ], [ 105.307106018066406, 12.778709411621207 ], [ 105.308998107910156, 12.779260635376033 ], [ 105.311309814453125, 12.779570579528865 ], [ 105.313537597656364, 12.779830932617244 ], [ 105.31494140625, 12.779691696166992 ], [ 105.317329406738395, 12.779050827026481 ], [ 105.318252563476619, 12.778480529785213 ], [ 105.319938659668026, 12.777599334716854 ], [ 105.321601867675781, 12.776651382446403 ], [ 105.323020935058651, 12.776049613952694 ], [ 105.323959350585994, 12.776030540466422 ], [ 105.324821472167912, 12.776190757751579 ], [ 105.325912475586051, 12.777079582214469 ], [ 105.326683044433707, 12.77766132354742 ], [ 105.328201293945426, 12.778109550476074 ], [ 105.330047607421932, 12.778230667114201 ], [ 105.331481933593693, 12.778340339660645 ], [ 105.333488464355526, 12.777400970459041 ], [ 105.333702087402401, 12.777450561523438 ], [ 105.334671020507869, 12.777341842651481 ], [ 105.335731506347656, 12.777341842651481 ], [ 105.336273193359375, 12.777320861816463 ], [ 105.336837768554631, 12.77717113494873 ], [ 105.338470458984432, 12.776840209960881 ], [ 105.339607238769588, 12.776881217956657 ], [ 105.339866638183707, 12.776861190795898 ], [ 105.341270446777344, 12.776709556579647 ], [ 105.343162536621094, 12.776851654052791 ], [ 105.344726562500057, 12.777509689331168 ], [ 105.346611022949219, 12.778519630432186 ], [ 105.346969604492188, 12.778531074523926 ], [ 105.347923278808594, 12.778399467468375 ], [ 105.34879302978527, 12.77815055847168 ], [ 105.349739074707088, 12.777871131896973 ], [ 105.35076904296875, 12.777710914611873 ], [ 105.351898193359318, 12.777550697326717 ], [ 105.353363037109432, 12.777371406555176 ], [ 105.354682922363338, 12.777099609375 ], [ 105.355659484863395, 12.776881217956657 ], [ 105.356430053711051, 12.77697944641119 ], [ 105.357368469238338, 12.777091026306209 ], [ 105.359947204589844, 12.777179718017578 ], [ 105.360420227050838, 12.777091026306209 ], [ 105.361480712890625, 12.776910781860352 ], [ 105.362281799316463, 12.777161598205623 ], [ 105.363609313964901, 12.777599334716854 ], [ 105.364250183105582, 12.77805137634283 ], [ 105.36492919921875, 12.778340339660645 ], [ 105.365356445312557, 12.778440475463924 ], [ 105.365867614746094, 12.779319763183537 ], [ 105.368560791015625, 12.779231071472168 ], [ 105.369712829589901, 12.778960227966309 ], [ 105.370246887207031, 12.779460906982422 ], [ 105.371429443359432, 12.780269622802791 ], [ 105.372627258300838, 12.780982017517204 ], [ 105.373558044433651, 12.781451225280875 ], [ 105.374702453613338, 12.782079696655387 ], [ 105.375938415527287, 12.782711029052734 ], [ 105.377510070800781, 12.783700942993278 ], [ 105.378677368164119, 12.784090042114371 ], [ 105.379371643066349, 12.784580230712891 ], [ 105.380798339843807, 12.784960746765137 ], [ 105.382148742675838, 12.785360336303825 ], [ 105.383941650390568, 12.785559654235954 ], [ 105.38468170166027, 12.785649299621639 ], [ 105.386077880859375, 12.786100387573356 ], [ 105.386497497558651, 12.786300659179744 ], [ 105.387542724609489, 12.786661148071289 ], [ 105.388221740722713, 12.787100791931266 ], [ 105.389579772949276, 12.787710189819336 ], [ 105.390609741210881, 12.788261413574332 ], [ 105.391471862793026, 12.788680076599121 ], [ 105.392326354980412, 12.789150238037053 ], [ 105.393257141113395, 12.789840698242188 ], [ 105.393775939941463, 12.790519714355582 ], [ 105.395347595214957, 12.791871070861873 ], [ 105.396186828613281, 12.792169570922852 ], [ 105.397308349609375, 12.792521476745719 ], [ 105.398170471191463, 12.792821884155217 ], [ 105.399299621582088, 12.793210983276367 ], [ 105.400382995605469, 12.793910980224553 ], [ 105.401077270507926, 12.794230461120719 ], [ 105.402770996093864, 12.795380592346191 ], [ 105.403968811035099, 12.796400070190543 ], [ 105.404869079589957, 12.79734992980957 ], [ 105.405639648437614, 12.798041343688965 ], [ 105.40811920166027, 12.800520896911621 ], [ 105.408927917480412, 12.801411628723145 ], [ 105.409866333007926, 12.802290916442928 ], [ 105.411216735839787, 12.803210258484 ], [ 105.412033081054688, 12.80370044708252 ], [ 105.412689208984489, 12.803959846496639 ], [ 105.413467407226676, 12.804000854492244 ], [ 105.4146728515625, 12.803710937500114 ], [ 105.415145874023494, 12.803071022033748 ], [ 105.415496826171932, 12.802249908447379 ], [ 105.415962219238395, 12.801609992980957 ], [ 105.416419982910156, 12.800721168518066 ], [ 105.417030334472713, 12.800160408020076 ], [ 105.418861389160156, 12.799599647521973 ], [ 105.420059204101563, 12.799670219421387 ], [ 105.421607971191463, 12.799619674682674 ], [ 105.422546386718807, 12.800040245056266 ], [ 105.424911499023551, 12.80078029632574 ], [ 105.427001953125114, 12.800491333007756 ], [ 105.429283142089957, 12.80032920837408 ], [ 105.430877685546875, 12.800089836120662 ], [ 105.431655883789063, 12.800150871276969 ], [ 105.433418273925838, 12.800251960754395 ], [ 105.435150146484432, 12.800271987915096 ], [ 105.435935974121151, 12.800280570983944 ], [ 105.438209533691463, 12.800150871276969 ], [ 105.439453124999943, 12.800260543823185 ], [ 105.441078186035213, 12.800550460815487 ], [ 105.442146301269531, 12.800850868225211 ], [ 105.445327758789176, 12.801460266113281 ], [ 105.446418762207088, 12.801509857177848 ], [ 105.447578430175838, 12.80134105682373 ], [ 105.449142456054801, 12.80078029632574 ], [ 105.450218200683651, 12.800561904907227 ], [ 105.451301574707031, 12.799942016601563 ], [ 105.452140808105526, 12.799002647399902 ], [ 105.453376770019474, 12.797967910766658 ], [ 105.45416259765625, 12.79719066619873 ], [ 105.452812194824219, 12.795491218566895 ], [ 105.451210021972713, 12.793178558349609 ], [ 105.449729919433707, 12.788789749145565 ], [ 105.448722839355526, 12.785409927368221 ], [ 105.448112487793026, 12.781490325927848 ], [ 105.447921752929744, 12.777091026306209 ], [ 105.448143005371151, 12.773970603942871 ], [ 105.448371887207145, 12.772480010986385 ], [ 105.448921203613338, 12.771000862121696 ], [ 105.450569152832031, 12.769070625305233 ], [ 105.451980590820426, 12.767930984497013 ], [ 105.453323364257926, 12.767099380493221 ], [ 105.454292297363395, 12.766139984130916 ], [ 105.455825805664176, 12.764110565185661 ], [ 105.456367492675895, 12.76333045959484 ], [ 105.457237243652344, 12.762050628662053 ], [ 105.457832336425838, 12.76052188873291 ], [ 105.457786560058594, 12.758342742919979 ], [ 105.457046508789063, 12.756191253662109 ], [ 105.456047058105412, 12.754880905151367 ], [ 105.453750610351506, 12.753780364990291 ], [ 105.452346801757869, 12.752301216125602 ], [ 105.451828002929801, 12.750432014465446 ], [ 105.451705932617188, 12.749301910400391 ], [ 105.451339721679688, 12.747801780700797 ], [ 105.451011657714901, 12.746809959411678 ], [ 105.450889587402287, 12.746219635009709 ], [ 105.450836181640739, 12.745160102844238 ], [ 105.450599670410213, 12.744440078735465 ], [ 105.450599670410213, 12.743849754333496 ], [ 105.450637817382869, 12.743200302124137 ], [ 105.450149536132813, 12.742170333862362 ], [ 105.449859619140682, 12.741399765014705 ], [ 105.449569702148438, 12.740309715271053 ], [ 105.449348449707145, 12.739800453186092 ], [ 105.449302673339901, 12.739121437072754 ], [ 105.449157714843864, 12.738249778747672 ], [ 105.448905944824276, 12.73707199096674 ], [ 105.448387145996207, 12.73572921752924 ], [ 105.447586059570369, 12.734781265258789 ], [ 105.446800231933651, 12.733969688415527 ], [ 105.445869445800838, 12.733249664306584 ], [ 105.444877624511776, 12.732821464538688 ], [ 105.444206237792912, 12.732549667358342 ], [ 105.443328857421875, 12.732159614562988 ], [ 105.442596435546932, 12.731660842895621 ], [ 105.441673278808651, 12.731248855590934 ], [ 105.4407958984375, 12.730829238891658 ], [ 105.439918518066463, 12.730129241943416 ], [ 105.439262390136662, 12.729299545288029 ], [ 105.438461303711051, 12.728041648864746 ], [ 105.437950134277344, 12.727230072021541 ], [ 105.437408447265625, 12.726350784301701 ], [ 105.436859130859432, 12.724860191345272 ], [ 105.436607360839844, 12.723920822143668 ], [ 105.436332702636776, 12.722931861877441 ], [ 105.436149597168082, 12.721491813659725 ], [ 105.436286926269588, 12.720650672912598 ], [ 105.437187194824219, 12.719440460205135 ], [ 105.438079833984489, 12.718599319458065 ], [ 105.438880920410099, 12.717610359192008 ], [ 105.439453124999943, 12.716621398925781 ], [ 105.439811706543082, 12.71582126617426 ], [ 105.439788818359489, 12.714619636535645 ], [ 105.439788818359489, 12.713891029358024 ], [ 105.439598083496207, 12.712869644165039 ], [ 105.439399719238395, 12.711890220642147 ], [ 105.439559936523494, 12.711050987243652 ], [ 105.439537048339901, 12.710201263427734 ], [ 105.439666748046875, 12.709421157836914 ], [ 105.439781188964957, 12.709050178527775 ], [ 105.440406799316349, 12.708481788635311 ], [ 105.4407958984375, 12.707810401916447 ], [ 105.440979003906193, 12.707071304321232 ], [ 105.441268920898494, 12.706230163574332 ], [ 105.441757202148438, 12.705649375915641 ], [ 105.442146301269531, 12.70509147644043 ], [ 105.4427490234375, 12.704390525817871 ], [ 105.443542480468807, 12.703692436218262 ], [ 105.444236755371094, 12.70331954956049 ], [ 105.444938659668082, 12.702582359314079 ], [ 105.445747375488224, 12.701991081237793 ], [ 105.447067260742131, 12.701121330261287 ], [ 105.447296142578125, 12.700579643249625 ], [ 105.447387695312557, 12.699750900268555 ], [ 105.4478759765625, 12.699090003967285 ], [ 105.448722839355526, 12.698491096496639 ], [ 105.449531555175895, 12.697979927063102 ], [ 105.450439453125057, 12.697230339050293 ], [ 105.451118469238281, 12.696571350097656 ], [ 105.451652526855412, 12.695818901062125 ], [ 105.451972961425838, 12.695231437683219 ], [ 105.452430725097656, 12.694980621337891 ], [ 105.453186035156193, 12.694561004638672 ], [ 105.453475952148494, 12.693881988525447 ], [ 105.453620910644531, 12.693108558654899 ], [ 105.453651428222713, 12.692480087280217 ], [ 105.454200744628906, 12.691520690918026 ], [ 105.454650878906364, 12.690779685974235 ], [ 105.454650878906364, 12.689710617065487 ], [ 105.454536437988281, 12.687980651855469 ], [ 105.454643249511776, 12.68723201751709 ], [ 105.455261230468864, 12.686080932617188 ], [ 105.455535888671875, 12.684861183166561 ], [ 105.455848693847599, 12.683509826660213 ], [ 105.456016540527457, 12.682609558105412 ], [ 105.456138610839901, 12.68214035034174 ], [ 105.456367492675895, 12.681340217590389 ], [ 105.456527709960994, 12.680000305175781 ], [ 105.455886840820313, 12.679400444030875 ], [ 105.455535888671875, 12.678601264953613 ], [ 105.455673217773438, 12.677839279174805 ], [ 105.455825805664176, 12.677091598510742 ], [ 105.455551147460994, 12.676489830017033 ], [ 105.455696105957031, 12.675531387329158 ], [ 105.456138610839901, 12.674541473388672 ], [ 105.456466674804688, 12.673721313476563 ], [ 105.456832885742188, 12.672629356384391 ], [ 105.456611633300724, 12.671702384948787 ], [ 105.456253051757813, 12.671111106872672 ], [ 105.456291198730469, 12.670461654663143 ], [ 105.455940246582088, 12.669451713562069 ], [ 105.455482482910156, 12.668841361999569 ], [ 105.454940795898438, 12.668210029602164 ], [ 105.454627990722713, 12.667572021484375 ], [ 105.454467773437614, 12.667081832885856 ], [ 105.453887939453239, 12.666408538818416 ], [ 105.453338623046989, 12.66580963134777 ], [ 105.45281982421875, 12.665240287780819 ], [ 105.452079772949219, 12.664620399475154 ], [ 105.451591491699276, 12.664079666137752 ], [ 105.451278686523381, 12.663648605346793 ], [ 105.451118469238281, 12.662849426269531 ], [ 105.450965881347713, 12.662311553955021 ], [ 105.450599670410213, 12.661910057067928 ], [ 105.450042724609432, 12.661520957946834 ], [ 105.449729919433707, 12.660810470581168 ], [ 105.449539184570426, 12.660371780395508 ], [ 105.449058532714901, 12.660061836242676 ], [ 105.448608398437443, 12.659501075744686 ], [ 105.448318481445369, 12.65897274017334 ], [ 105.4482421875, 12.658359527587891 ], [ 105.448211669921818, 12.657939910888672 ], [ 105.447441101074332, 12.657280921935978 ], [ 105.446952819824219, 12.656860351562443 ], [ 105.446678161621207, 12.656189918518066 ], [ 105.446861267089957, 12.65537166595459 ], [ 105.446472167968864, 12.654970169067496 ], [ 105.446121215820256, 12.65453052520752 ], [ 105.446220397949276, 12.654051780700684 ], [ 105.446609497070369, 12.653400421142578 ], [ 105.447021484375114, 12.652851104736385 ], [ 105.447166442871151, 12.652370452880973 ], [ 105.447296142578125, 12.651790618896598 ], [ 105.447357177734432, 12.651410102844352 ], [ 105.447471618652344, 12.651070594787654 ], [ 105.447898864746094, 12.650409698486385 ], [ 105.448211669921818, 12.649820327758903 ], [ 105.448356628418082, 12.649081230163688 ], [ 105.448410034179631, 12.64851093292242 ], [ 105.448356628418082, 12.647770881652889 ], [ 105.448051452636719, 12.647380828857536 ], [ 105.448028564453068, 12.646780967712402 ], [ 105.448677062988338, 12.646190643310604 ], [ 105.449417114257813, 12.645759582519645 ], [ 105.449981689453125, 12.64529991149908 ], [ 105.450439453125057, 12.644981384277401 ], [ 105.451080322265568, 12.644860267639274 ], [ 105.451919555664119, 12.644809722900391 ], [ 105.452316284179744, 12.644440650940055 ], [ 105.452896118164119, 12.644001007080021 ], [ 105.45352935791027, 12.643820762634391 ], [ 105.453887939453239, 12.643241882324276 ], [ 105.454620361328182, 12.642661094665584 ], [ 105.455390930175838, 12.642067909240723 ], [ 105.456031799316349, 12.641592025756836 ], [ 105.456771850586051, 12.640609741211051 ], [ 105.457015991210938, 12.63984203338623 ], [ 105.456909179687557, 12.638991355896053 ], [ 105.45684814453125, 12.638109207153377 ], [ 105.45758056640625, 12.637120246887321 ], [ 105.458251953125057, 12.636201858520565 ], [ 105.458679199218864, 12.635690689087028 ], [ 105.459289550781193, 12.635009765625057 ], [ 105.459869384765625, 12.634991645813045 ], [ 105.460601806640739, 12.635239601135311 ], [ 105.460906982421932, 12.635048866272029 ], [ 105.461067199707031, 12.634471893310547 ], [ 105.461730957031364, 12.63400936126709 ], [ 105.462432861328182, 12.633041381835938 ], [ 105.463241577148551, 12.631389617920036 ], [ 105.463630676269645, 12.630310058593864 ], [ 105.464256286621094, 12.628980636596623 ], [ 105.464637756347656, 12.627779960632324 ], [ 105.465080261230526, 12.626791000366268 ], [ 105.466140747070256, 12.625761032104492 ], [ 105.467071533203239, 12.624170303344727 ], [ 105.467636108398551, 12.623081207275391 ], [ 105.467765808105526, 12.621669769287053 ], [ 105.467521667480469, 12.620710372924862 ], [ 105.467102050781193, 12.619880676269531 ], [ 105.467872619628849, 12.618839263916016 ], [ 105.468498229980469, 12.617781639099121 ], [ 105.469032287597656, 12.616730690002498 ], [ 105.46942138671875, 12.615080833435002 ], [ 105.469711303710994, 12.613209724426326 ], [ 105.470642089843807, 12.612119674682674 ], [ 105.471832275390739, 12.611210823059025 ], [ 105.472892761230469, 12.61018085479742 ], [ 105.473518371582088, 12.609160423278752 ], [ 105.474082946777401, 12.608539581298828 ], [ 105.474533081054631, 12.607521057128906 ], [ 105.474838256835994, 12.606620788574276 ], [ 105.475639343261832, 12.606140136718693 ], [ 105.476463317871094, 12.605920791626033 ], [ 105.477462768554688, 12.605071067810115 ], [ 105.478172302246037, 12.603890419006348 ], [ 105.479110717773381, 12.603031158447266 ], [ 105.479927062988281, 12.602391242981071 ], [ 105.48136138916027, 12.60210132598877 ], [ 105.483062744140682, 12.601430892944393 ], [ 105.484329223632813, 12.600501060485897 ], [ 105.485771179199332, 12.599500656127987 ], [ 105.486961364746094, 12.59851169586193 ], [ 105.487777709960994, 12.59751129150402 ], [ 105.488647460937443, 12.596150398254338 ], [ 105.489158630371151, 12.594700813293514 ], [ 105.489730834960994, 12.592929840087891 ], [ 105.491241455078182, 12.592070579528865 ], [ 105.492416381836051, 12.591878890991268 ], [ 105.493865966796875, 12.591540336608887 ], [ 105.494651794433651, 12.590670585632381 ], [ 105.495147705078068, 12.589310646057186 ], [ 105.495307922363395, 12.58882999420166 ], [ 105.4957275390625, 12.588600158691406 ], [ 105.496047973632926, 12.588269233703727 ], [ 105.495941162109375, 12.587880134582576 ], [ 105.496002197265682, 12.587491989135799 ], [ 105.496261596679801, 12.587471961975041 ], [ 105.496566772460994, 12.58761119842535 ], [ 105.496780395507869, 12.587631225585881 ], [ 105.497016906738395, 12.587690353393612 ], [ 105.497558593750057, 12.587678909301701 ], [ 105.498161315918082, 12.587760925293026 ], [ 105.498291015625057, 12.587011337280217 ], [ 105.498542785644645, 12.586480140686149 ], [ 105.499511718750114, 12.586609840393123 ], [ 105.500236511230582, 12.586681365966854 ], [ 105.500541687011719, 12.586429595947266 ], [ 105.500732421875, 12.586030960083008 ], [ 105.501342773437557, 12.58585071563715 ], [ 105.502113342285213, 12.58518123626709 ], [ 105.502517700195369, 12.585450172424373 ], [ 105.502868652343807, 12.585169792175407 ], [ 105.503211975097656, 12.584851264953727 ], [ 105.503723144531193, 12.584989547729549 ], [ 105.504127502441406, 12.58535194396984 ], [ 105.50443267822277, 12.585382461547795 ], [ 105.504959106445369, 12.58518123626709 ], [ 105.505249023437443, 12.585411071777344 ], [ 105.505538940429744, 12.585169792175407 ], [ 105.506156921386832, 12.584951400756836 ], [ 105.506576538085881, 12.585210800170955 ], [ 105.507026672363281, 12.585169792175407 ], [ 105.506919860839957, 12.584761619567871 ], [ 105.507362365722656, 12.584730148315373 ], [ 105.507865905761832, 12.58491039276123 ], [ 105.508331298828125, 12.584321975708065 ], [ 105.50846099853527, 12.583880424499455 ], [ 105.509132385253906, 12.58379077911377 ], [ 105.509376525878963, 12.583971023559627 ], [ 105.50962066650402, 12.584159851074332 ], [ 105.510513305664119, 12.584461212158317 ], [ 105.511276245117244, 12.583569526672363 ], [ 105.511886596679801, 12.583521842956543 ], [ 105.512306213378849, 12.583451271057072 ], [ 105.51267242431652, 12.58291053771967 ], [ 105.513702392578125, 12.58275127410883 ], [ 105.514221191406193, 12.582710266113281 ], [ 105.514183044433707, 12.581980705261174 ], [ 105.514839172363281, 12.581680297851676 ], [ 105.515357971191349, 12.58202171325695 ], [ 105.515739440917912, 12.581650733947811 ], [ 105.516517639160156, 12.581440925598258 ], [ 105.517082214355412, 12.58141994476324 ], [ 105.517547607421932, 12.580850601196289 ], [ 105.518211364746037, 12.581151962280273 ], [ 105.518638610839844, 12.580960273742733 ], [ 105.519439697265682, 12.581110000610408 ], [ 105.519836425781307, 12.580880165100154 ], [ 105.520545959472656, 12.580860137939396 ], [ 105.521186828613338, 12.581001281738281 ], [ 105.521736145019588, 12.580699920654297 ], [ 105.521987915039176, 12.581260681152401 ], [ 105.522628784179688, 12.581399917602539 ], [ 105.523216247558594, 12.581709861755371 ], [ 105.523498535156307, 12.581139564514274 ], [ 105.52398681640625, 12.581001281738281 ], [ 105.52426910400402, 12.58037185668951 ], [ 105.524612426757869, 12.579879760742188 ], [ 105.525032043457145, 12.57932090759283 ], [ 105.525398254394588, 12.578920364379883 ], [ 105.525558471679744, 12.578441619873047 ], [ 105.526039123535099, 12.578200340271053 ], [ 105.526420593261662, 12.578131675720215 ], [ 105.527107238769588, 12.578010559082088 ], [ 105.527465820312557, 12.577459335327262 ], [ 105.528152465820313, 12.577059745788574 ], [ 105.528839111328182, 12.57660007476801 ], [ 105.528839111328182, 12.576050758361816 ], [ 105.52874755859375, 12.575691223144588 ], [ 105.529006958007869, 12.57512092590332 ], [ 105.528778076171875, 12.57467174530035 ], [ 105.529342651367188, 12.574410438537654 ], [ 105.529678344726563, 12.57396125793457 ], [ 105.529930114746151, 12.572910308837891 ], [ 105.530761718750114, 12.573000907898063 ], [ 105.530708312988338, 12.572531700134221 ], [ 105.530632019042969, 12.571859359741268 ], [ 105.530471801757813, 12.571041107177791 ], [ 105.530220031738395, 12.570409774780217 ], [ 105.530410766601676, 12.569991111755428 ], [ 105.530738830566463, 12.569391250610352 ], [ 105.531280517578182, 12.569291114807243 ], [ 105.531852722168026, 12.568989753723201 ], [ 105.532012939453125, 12.568131446838436 ], [ 105.532226562500057, 12.567502021789664 ], [ 105.532463073730526, 12.567130088806209 ], [ 105.532676696777457, 12.566790580749512 ], [ 105.532356262207031, 12.566241264343319 ], [ 105.532066345214901, 12.565790176391602 ], [ 105.532577514648438, 12.565349578857479 ], [ 105.532546997070313, 12.564881324768123 ], [ 105.532928466796875, 12.564530372619743 ], [ 105.533111572265625, 12.564130783080998 ], [ 105.533096313476506, 12.563761711120662 ], [ 105.533493041992188, 12.563489913940487 ], [ 105.533790588378963, 12.562761306762695 ], [ 105.534019470214957, 12.562158584594727 ], [ 105.533660888671818, 12.561621665954704 ], [ 105.533462524414176, 12.560611724853629 ], [ 105.533332824707031, 12.559439659118652 ], [ 105.533782958984432, 12.558620452880916 ], [ 105.533546447753906, 12.557890892028809 ], [ 105.534027099609489, 12.557262420654297 ], [ 105.534057617187443, 12.556780815124625 ], [ 105.534172058105526, 12.556320190429801 ], [ 105.535156250000114, 12.556269645690918 ], [ 105.535461425781307, 12.555879592895508 ], [ 105.535377502441349, 12.555109977722168 ], [ 105.535697937011776, 12.554862022399902 ], [ 105.535682678222713, 12.554301261901969 ], [ 105.536079406738338, 12.554121017456112 ], [ 105.536102294921989, 12.553481101989746 ], [ 105.536521911621037, 12.553000450134334 ], [ 105.535972595214844, 12.552261352539119 ], [ 105.536170959472656, 12.551630020141545 ], [ 105.536468505859432, 12.550749778747672 ], [ 105.536651611328182, 12.549921035766545 ], [ 105.536430358886776, 12.549380302429199 ], [ 105.536827087402401, 12.54871940612793 ], [ 105.536872863769645, 12.547860145568848 ], [ 105.536567687988281, 12.547530174255485 ], [ 105.536918640136662, 12.546481132507438 ], [ 105.537162780761719, 12.545469284057617 ], [ 105.536827087402401, 12.544831275939998 ], [ 105.536247253418026, 12.544488906860408 ], [ 105.535766601562443, 12.544421195983887 ], [ 105.535408020019531, 12.543850898742789 ], [ 105.535148620605582, 12.543171882629395 ], [ 105.534751892089901, 12.542892456054744 ], [ 105.534362792968807, 12.542309761047477 ], [ 105.534072875976563, 12.541509628295955 ], [ 105.533348083496094, 12.541171073913517 ], [ 105.532737731933594, 12.541000366210994 ], [ 105.532516479492131, 12.540069580078182 ], [ 105.531379699706974, 12.53961181640625 ], [ 105.530860900878906, 12.539670944213981 ], [ 105.530220031738395, 12.539100646972713 ], [ 105.529586791992244, 12.538481712341365 ], [ 105.529006958007869, 12.538429260253849 ], [ 105.52829742431652, 12.538091659545955 ], [ 105.5281982421875, 12.53744029998785 ], [ 105.528686523437614, 12.536520957946777 ], [ 105.528678894043082, 12.535981178283691 ], [ 105.528579711914063, 12.535060882568473 ], [ 105.528640747070369, 12.534432411193791 ], [ 105.528861999511832, 12.533519744873161 ], [ 105.529220581054744, 12.532731056213322 ], [ 105.529556274414119, 12.531760215759277 ], [ 105.529747009277401, 12.530981063842773 ], [ 105.530746459960994, 12.530461311340389 ], [ 105.531082153320369, 12.52954006195074 ], [ 105.530647277832031, 12.529111862182674 ], [ 105.530952453613395, 12.528291702270565 ], [ 105.530937194824276, 12.527550697326774 ], [ 105.530838012695313, 12.527020454406795 ], [ 105.531242370605469, 12.526610374450684 ], [ 105.531410217285156, 12.525740623474178 ], [ 105.531501770019588, 12.524800300598088 ], [ 105.531181335449162, 12.524041175842342 ], [ 105.531303405761776, 12.52318191528326 ], [ 105.531372070312443, 12.522440910339469 ], [ 105.53143310546875, 12.521909713745174 ], [ 105.530860900878906, 12.521310806274357 ], [ 105.530799865722599, 12.520401000976619 ], [ 105.531341552734489, 12.519769668579045 ], [ 105.53106689453125, 12.51875114440918 ], [ 105.531150817871207, 12.517641067504996 ], [ 105.531257629394531, 12.516590118408146 ], [ 105.530990600585881, 12.515740394592228 ], [ 105.530708312988338, 12.514969825744743 ], [ 105.530693054199276, 12.514060974121094 ], [ 105.530891418457088, 12.51360034942627 ], [ 105.5306396484375, 12.513131141662598 ], [ 105.530532836914119, 12.512570381164664 ], [ 105.530250549316406, 12.512000083923397 ], [ 105.529899597167969, 12.511249542236271 ], [ 105.529769897460994, 12.510951995849666 ], [ 105.529312133789063, 12.511130332946721 ], [ 105.528800964355526, 12.510397911071777 ], [ 105.528350830078125, 12.509881019592285 ], [ 105.528282165527457, 12.508820533752498 ], [ 105.527893066406364, 12.508239746093864 ], [ 105.527313232421932, 12.508079528808707 ], [ 105.526802062988224, 12.507531166076774 ], [ 105.52677154541027, 12.506831169128361 ], [ 105.527359008789176, 12.506229400634879 ], [ 105.527862548828182, 12.505691528320369 ], [ 105.527862548828182, 12.505270004272518 ], [ 105.528182983398438, 12.504730224609375 ], [ 105.528022766113338, 12.504350662231445 ], [ 105.527847290039119, 12.503911972045898 ], [ 105.528282165527457, 12.503431320190543 ], [ 105.528137207031193, 12.502869606018123 ], [ 105.528312683105582, 12.502530097961426 ], [ 105.528137207031193, 12.501939773559627 ], [ 105.528167724609375, 12.501541137695369 ], [ 105.528160095214844, 12.50117015838623 ], [ 105.528022766113338, 12.500699996948299 ], [ 105.527816772460938, 12.500460624694881 ], [ 105.527603149414063, 12.500570297241325 ], [ 105.527389526367188, 12.499830245971793 ], [ 105.527069091796932, 12.499140739440975 ], [ 105.527030944824219, 12.498541831970158 ], [ 105.5272216796875, 12.49773979187006 ], [ 105.527069091796932, 12.497090339660701 ], [ 105.527069091796932, 12.496231079101676 ], [ 105.527000427246037, 12.495882034301871 ], [ 105.526786804199332, 12.495109558105582 ], [ 105.526611328124943, 12.494310379028377 ], [ 105.526542663574276, 12.493641853332576 ], [ 105.526512145996151, 12.493187904358024 ], [ 105.526840209960938, 12.492580413818359 ], [ 105.526748657226676, 12.492069244384822 ], [ 105.526863098144531, 12.491620063781681 ], [ 105.526885986328182, 12.490870475769043 ], [ 105.526718139648494, 12.490571975708121 ], [ 105.526290893554688, 12.48983097076416 ], [ 105.526329040527401, 12.489229202270621 ], [ 105.526390075683707, 12.488140106201286 ], [ 105.526527404785213, 12.487900733947697 ], [ 105.526741027832088, 12.487530708313045 ], [ 105.527069091796932, 12.487461090087891 ], [ 105.527648925781307, 12.487310409545898 ], [ 105.527976989746094, 12.486900329589957 ], [ 105.528572082519531, 12.486028671264705 ], [ 105.529197692871151, 12.485439300537223 ], [ 105.529151916503906, 12.484491348266545 ], [ 105.529663085937443, 12.484530448913574 ], [ 105.530021667480582, 12.484419822692814 ], [ 105.530258178710938, 12.483960151672477 ], [ 105.53009033203125, 12.48336124420166 ], [ 105.529739379882869, 12.483222007751579 ], [ 105.529342651367188, 12.482961654663143 ], [ 105.529479980468693, 12.482501029968319 ], [ 105.53009033203125, 12.482191085815487 ], [ 105.53106689453125, 12.482010841369629 ], [ 105.531547546386832, 12.481500625610352 ], [ 105.531448364257813, 12.481110572814998 ], [ 105.530738830566463, 12.480660438537541 ], [ 105.530616760253849, 12.480170249939079 ], [ 105.531028747558594, 12.479670524597225 ], [ 105.532058715820369, 12.479581832885856 ], [ 105.532279968261832, 12.478970527648983 ], [ 105.531936645507926, 12.478791236877441 ], [ 105.5316162109375, 12.478610992431754 ], [ 105.531311035156307, 12.47832107543951 ], [ 105.530906677246151, 12.477970123291072 ], [ 105.530509948730526, 12.477531433105582 ], [ 105.5306396484375, 12.477141380310172 ], [ 105.531471252441463, 12.477320671081543 ], [ 105.531867980957088, 12.476951599121207 ], [ 105.531921386718864, 12.476290702819938 ], [ 105.532051086425838, 12.475910186767692 ], [ 105.532577514648438, 12.476031303405819 ], [ 105.533477783203068, 12.476390838623047 ], [ 105.534271240234375, 12.476370811462516 ], [ 105.534378051757926, 12.475721359252987 ], [ 105.533950805664119, 12.474821090698356 ], [ 105.533988952636776, 12.474227905273494 ], [ 105.534072875976563, 12.473671913147029 ], [ 105.533798217773494, 12.473081588745174 ], [ 105.534019470214957, 12.472161293029842 ], [ 105.533477783203068, 12.472311019897518 ], [ 105.533203125000057, 12.47236156463623 ], [ 105.532897949218693, 12.472261428833121 ], [ 105.532897949218693, 12.471611976623592 ], [ 105.533332824707031, 12.471090316772461 ], [ 105.533378601074276, 12.470511436462402 ], [ 105.533126831054688, 12.470362663269157 ], [ 105.532417297363338, 12.470398902893066 ], [ 105.532020568847656, 12.470470428466797 ], [ 105.531761169433537, 12.470669746398926 ], [ 105.531059265136719, 12.471330642700138 ], [ 105.530548095703182, 12.471689224243278 ], [ 105.530311584472713, 12.471098899841309 ], [ 105.530586242675895, 12.470582008361816 ], [ 105.530876159667969, 12.470070838928279 ], [ 105.530937194824276, 12.469801902770996 ], [ 105.531402587890625, 12.469459533691463 ], [ 105.531738281250114, 12.469141006469783 ], [ 105.532081604003963, 12.469050407409782 ], [ 105.532440185546932, 12.469559669494743 ], [ 105.532867431640739, 12.469639778137321 ], [ 105.533340454101563, 12.468991279602051 ], [ 105.531288146972713, 12.468320846557731 ], [ 105.531021118164063, 12.468090057373161 ], [ 105.530647277832031, 12.467269897460881 ], [ 105.530540466308651, 12.466959953308049 ], [ 105.530487060546875, 12.466661453247127 ], [ 105.530487060546875, 12.46621036529541 ], [ 105.530242919921818, 12.465929985046444 ], [ 105.530113220214844, 12.465611457824764 ], [ 105.530136108398494, 12.465279579162654 ], [ 105.530281066894531, 12.464982032775993 ], [ 105.530151367187557, 12.464529991150016 ], [ 105.529571533203182, 12.464760780334529 ], [ 105.529281616210881, 12.464849472045955 ], [ 105.528549194335938, 12.464811325073242 ], [ 105.528350830078125, 12.464529991150016 ], [ 105.528419494628963, 12.463549613952637 ], [ 105.52874755859375, 12.463521003723201 ], [ 105.529090881347599, 12.463529586792049 ], [ 105.529960632324276, 12.463329315185661 ], [ 105.530242919921818, 12.463329315185661 ], [ 105.530471801757813, 12.463101387023983 ], [ 105.530403137207145, 12.462862014770565 ], [ 105.530281066894531, 12.462591171264705 ], [ 105.530029296875114, 12.462250709533748 ], [ 105.529571533203182, 12.462030410766602 ], [ 105.529327392578125, 12.462301254272461 ], [ 105.528678894043082, 12.462761878967285 ], [ 105.528411865234432, 12.462809562683105 ], [ 105.528053283691463, 12.462809562683105 ], [ 105.527763366699162, 12.462771415710392 ], [ 105.527229309082031, 12.462540626525822 ], [ 105.526550292968807, 12.462451934814453 ], [ 105.526161193847713, 12.462470054626579 ], [ 105.525650024414006, 12.462030410766602 ], [ 105.525871276855469, 12.461251258850098 ], [ 105.526260375976563, 12.461062431335392 ], [ 105.526832580566406, 12.460980415344238 ], [ 105.527122497558651, 12.46085166931158 ], [ 105.527641296386776, 12.460459709167594 ], [ 105.527877807617244, 12.459970474243221 ], [ 105.527847290039119, 12.459700584411678 ], [ 105.527740478515739, 12.459281921386719 ], [ 105.527702331543082, 12.458992004394588 ], [ 105.527626037597656, 12.458260536193904 ], [ 105.527496337890682, 12.457962036132813 ], [ 105.527206420898438, 12.458101272583065 ], [ 105.525772094726619, 12.458560943603629 ], [ 105.525451660156364, 12.458600044250602 ], [ 105.525039672851676, 12.458481788635368 ], [ 105.524742126464844, 12.458331108093375 ], [ 105.524337768554688, 12.458080291748047 ], [ 105.523880004882869, 12.457900047302189 ], [ 105.523460388183651, 12.457161903381461 ], [ 105.524139404296818, 12.456979751587028 ], [ 105.524452209472713, 12.456810951232853 ], [ 105.524711608886662, 12.456669807434196 ], [ 105.52487945556652, 12.456281661987362 ], [ 105.524772644042969, 12.455961227417106 ], [ 105.524772644042969, 12.455671310424862 ], [ 105.524696350097599, 12.455130577087459 ], [ 105.524757385253906, 12.454301834106559 ], [ 105.524826049804744, 12.45405101776123 ], [ 105.524581909179688, 12.453800201416129 ], [ 105.523956298828125, 12.453841209411678 ], [ 105.523162841796989, 12.454420089721793 ], [ 105.522331237793026, 12.454611778259391 ], [ 105.521789550781364, 12.454301834106559 ], [ 105.521209716796932, 12.454721450805778 ], [ 105.521041870117301, 12.454990386962891 ], [ 105.520919799804688, 12.455290794372559 ], [ 105.520919799804688, 12.455559730529842 ], [ 105.520942687988281, 12.456351280212516 ], [ 105.520393371582088, 12.456281661987362 ], [ 105.520210266113338, 12.456041336059684 ], [ 105.519989013671875, 12.455651283264274 ], [ 105.519866943359432, 12.455130577087459 ], [ 105.519851684570369, 12.454721450805778 ], [ 105.519920349121207, 12.454410552978459 ], [ 105.520286560058707, 12.45385932922369 ], [ 105.520492553711051, 12.453611373901424 ], [ 105.520286560058707, 12.453080177307186 ], [ 105.519981384277344, 12.452860832214299 ], [ 105.518638610839844, 12.452940940856877 ], [ 105.518280029296875, 12.453188896179313 ], [ 105.518096923828125, 12.45370006561285 ], [ 105.517860412597656, 12.454100608825627 ], [ 105.517189025878963, 12.454139709472656 ], [ 105.516967773437557, 12.453960418701229 ], [ 105.516853332519645, 12.453611373901424 ], [ 105.516532897949219, 12.452560424804801 ], [ 105.516242980957088, 12.452171325683707 ], [ 105.515823364257869, 12.452301025390682 ], [ 105.515632629394588, 12.452610969543514 ], [ 105.515579223632813, 12.452930450439453 ], [ 105.515731811523381, 12.453829765319824 ], [ 105.515350341796818, 12.453901290893555 ], [ 105.515090942382869, 12.453880310058707 ], [ 105.514762878418082, 12.453741073608398 ], [ 105.514320373535213, 12.453720092773551 ], [ 105.513458251953068, 12.453550338745117 ], [ 105.513229370117301, 12.452540397644043 ], [ 105.513160705566463, 12.452199935913086 ], [ 105.513061523437443, 12.451851844787541 ], [ 105.512863159179801, 12.451530456543026 ], [ 105.512657165527457, 12.451299667358455 ], [ 105.512252807617301, 12.450950622558651 ], [ 105.511787414550781, 12.450989723205623 ], [ 105.511367797851563, 12.451210975647029 ], [ 105.511070251464901, 12.451379776001033 ], [ 105.510375976562614, 12.45177173614502 ], [ 105.5098876953125, 12.451650619506836 ], [ 105.509529113769588, 12.45160102844244 ], [ 105.509208679199332, 12.451701164245549 ], [ 105.508811950683651, 12.451740264892521 ], [ 105.508102416992131, 12.45160102844244 ], [ 105.507713317871207, 12.451689720153865 ], [ 105.507423400878963, 12.451970100402832 ], [ 105.507049560546932, 12.452249526977482 ], [ 105.506591796874943, 12.452860832214299 ], [ 105.506050109863281, 12.452701568603516 ], [ 105.505767822265739, 12.452271461486816 ], [ 105.505401611328239, 12.451801300048828 ], [ 105.505119323730469, 12.451861381530875 ], [ 105.504508972167969, 12.452581405639648 ], [ 105.504180908203182, 12.452739715576172 ], [ 105.503669738769645, 12.452610969543514 ], [ 105.503540039062443, 12.452060699463004 ], [ 105.503669738769645, 12.451760292053279 ], [ 105.503829956054744, 12.451551437378043 ], [ 105.504379272460994, 12.450901031494197 ], [ 105.504615783691463, 12.450390815734977 ], [ 105.504463195800895, 12.449520111084041 ], [ 105.503646850585994, 12.449029922485352 ], [ 105.503311157226676, 12.448952674865836 ], [ 105.502876281738338, 12.448869705200195 ], [ 105.502342224121207, 12.449210166931209 ], [ 105.502182006836051, 12.449510574340877 ], [ 105.502067565917969, 12.449951171875 ], [ 105.502082824707088, 12.450310707092399 ], [ 105.501792907714957, 12.450400352478084 ], [ 105.501525878906307, 12.44987964630127 ], [ 105.501373291015682, 12.449469566345329 ], [ 105.5010986328125, 12.448941230773926 ], [ 105.500946044921932, 12.448701858520508 ], [ 105.500640869140739, 12.448510169982967 ], [ 105.500137329101563, 12.448221206665153 ], [ 105.499511718750114, 12.448069572448844 ], [ 105.499008178710938, 12.447911262512321 ], [ 105.49859619140625, 12.44801139831543 ], [ 105.498138427734489, 12.447970390319881 ], [ 105.497329711914119, 12.448500633239803 ], [ 105.497138977050838, 12.448631286621094 ], [ 105.496482849121037, 12.449251174926758 ], [ 105.496177673339901, 12.449359893798885 ], [ 105.4957275390625, 12.449579238891545 ], [ 105.495399475097656, 12.449690818786735 ], [ 105.495071411132869, 12.449758529663143 ], [ 105.494689941406307, 12.44978046417242 ], [ 105.493537902832088, 12.449758529663143 ], [ 105.492897033691406, 12.44973182678234 ], [ 105.491798400878963, 12.449669837951717 ], [ 105.491027832031307, 12.449910163879395 ], [ 105.490531921386832, 12.450051307678279 ], [ 105.489822387695313, 12.450010299682731 ], [ 105.489349365234432, 12.450069427490234 ], [ 105.488739013671932, 12.450131416320858 ], [ 105.488212585449276, 12.450400352478084 ], [ 105.487991333007869, 12.450860023498649 ], [ 105.487876892089957, 12.45118236541748 ], [ 105.4871826171875, 12.452360153198185 ], [ 105.487091064453239, 12.45276069641119 ], [ 105.487152099609375, 12.453270912170467 ], [ 105.487167358398438, 12.45370006561285 ], [ 105.487457275390739, 12.454169273376522 ], [ 105.487716674804688, 12.454721450805778 ], [ 105.488418579101676, 12.454641342163029 ], [ 105.488876342773438, 12.454701423645076 ], [ 105.489646911621094, 12.454742431640625 ], [ 105.490341186523551, 12.454742431640625 ], [ 105.491668701171989, 12.454800605773869 ], [ 105.491767883300781, 12.455241203308162 ], [ 105.491531372070313, 12.455471038818416 ], [ 105.491157531738281, 12.455651283264274 ], [ 105.490760803222599, 12.455951690673828 ], [ 105.490463256835994, 12.456110954284668 ], [ 105.489738464355526, 12.456571578979492 ], [ 105.489189147949332, 12.456781387329215 ], [ 105.488243103027457, 12.457420349121094 ], [ 105.487380981445313, 12.458080291748047 ], [ 105.486099243164119, 12.459021568298454 ], [ 105.485649108886719, 12.460090637207031 ], [ 105.48557281494152, 12.46085166931158 ], [ 105.485641479492188, 12.461681365966797 ], [ 105.485519409179744, 12.462030410766602 ], [ 105.485130310058651, 12.462059974670467 ], [ 105.484886169433594, 12.461879730224609 ], [ 105.484687805175781, 12.461630821228084 ], [ 105.484321594238281, 12.461372375488224 ], [ 105.483879089355412, 12.461179733276367 ], [ 105.482917785644645, 12.461130142211971 ], [ 105.482147216796989, 12.461320877075252 ], [ 105.481468200683594, 12.46156120300293 ], [ 105.48089599609375, 12.46189117431652 ], [ 105.479629516601619, 12.462480545044002 ], [ 105.479347229003906, 12.462470054626579 ], [ 105.478851318359432, 12.462209701538143 ], [ 105.478622436523494, 12.461950302124023 ], [ 105.478370666503906, 12.461640357971191 ], [ 105.47812652587902, 12.461409568786621 ], [ 105.477668762207088, 12.461282730102539 ], [ 105.477210998535099, 12.461000442504996 ], [ 105.477020263671818, 12.460479736328125 ], [ 105.476982116699332, 12.459731101989803 ], [ 105.477012634277287, 12.458850860595703 ], [ 105.477088928222656, 12.458360671997013 ], [ 105.477180480957145, 12.457401275634879 ], [ 105.477256774902344, 12.456710815429744 ], [ 105.47696685791027, 12.456441879272518 ], [ 105.476097106933594, 12.45658111572277 ], [ 105.475746154785156, 12.456860542297477 ], [ 105.475341796875, 12.457009315490666 ], [ 105.474960327148438, 12.457260131835994 ], [ 105.474502563476676, 12.457519531250114 ], [ 105.474243164062557, 12.457729339599666 ], [ 105.474052429199276, 12.458021163940543 ], [ 105.474052429199276, 12.458311080932617 ], [ 105.474029541015625, 12.458641052246207 ], [ 105.474197387695313, 12.459119796752987 ], [ 105.474990844726563, 12.460479736328125 ], [ 105.475090026855582, 12.460799217224121 ], [ 105.475318908691406, 12.461700439453239 ], [ 105.475448608398551, 12.463040351867676 ], [ 105.475318908691406, 12.463481903076229 ], [ 105.475517272949219, 12.46428203582775 ], [ 105.475761413574276, 12.464639663696403 ], [ 105.476127624511719, 12.464961051940975 ], [ 105.476470947265625, 12.465129852294922 ], [ 105.476905822753963, 12.465480804443359 ], [ 105.477188110351676, 12.465570449829215 ], [ 105.477851867675781, 12.466100692749023 ], [ 105.477531433105526, 12.466670989990234 ], [ 105.477272033691406, 12.466820716857967 ], [ 105.476898193359375, 12.466979980468807 ], [ 105.476486206054688, 12.467140197753906 ], [ 105.475906372070313, 12.467071533203239 ], [ 105.475433349609432, 12.466861724853516 ], [ 105.474929809570256, 12.466830253601074 ], [ 105.474479675293026, 12.466861724853516 ], [ 105.47381591796875, 12.467081069946403 ], [ 105.473358154296989, 12.467300415039063 ], [ 105.472801208496207, 12.46786022186285 ], [ 105.472251892089787, 12.468450546264705 ], [ 105.471809387207088, 12.469291687011776 ], [ 105.471702575683594, 12.469791412353572 ], [ 105.471488952636662, 12.470300674438533 ], [ 105.471382141113338, 12.470731735229492 ], [ 105.470596313476563, 12.471479415893555 ], [ 105.469985961914063, 12.471269607544002 ], [ 105.469657897949276, 12.471200942993164 ], [ 105.469230651855469, 12.470989227294865 ], [ 105.468811035156193, 12.470790863037223 ], [ 105.46826171875, 12.470569610595817 ], [ 105.467765808105526, 12.470362663269157 ], [ 105.467277526855582, 12.469990730285701 ], [ 105.466957092285156, 12.469861030578727 ], [ 105.466751098632813, 12.469518661498967 ], [ 105.466667175293082, 12.469229698181152 ], [ 105.466812133789119, 12.468701362609977 ], [ 105.467018127441463, 12.468090057373161 ], [ 105.467277526855582, 12.46776008605957 ], [ 105.467536926269531, 12.467440605163631 ], [ 105.467658996582145, 12.467130661010799 ], [ 105.467376708984432, 12.466200828552303 ], [ 105.467041015625057, 12.466059684753418 ], [ 105.466468811035213, 12.466268539428654 ], [ 105.466117858886832, 12.46671199798584 ], [ 105.466049194335994, 12.467101097106934 ], [ 105.465957641601506, 12.467571258544865 ], [ 105.465927124023551, 12.467971801757869 ], [ 105.465927124023551, 12.468570709228516 ], [ 105.465988159179688, 12.469050407409782 ], [ 105.46591949462902, 12.469518661498967 ], [ 105.465728759765739, 12.470011711120549 ], [ 105.465438842773438, 12.470321655273381 ], [ 105.464653015136719, 12.470790863037223 ], [ 105.464332580566463, 12.470849990844783 ], [ 105.46402740478527, 12.470749855041504 ], [ 105.463401794433651, 12.470540046691951 ], [ 105.463058471679801, 12.470470428466797 ], [ 105.462432861328182, 12.470941543579045 ], [ 105.461860656738338, 12.471969604492244 ], [ 105.463371276855526, 12.473140716552734 ], [ 105.463722229003906, 12.473250389099178 ], [ 105.463493347167969, 12.47407054901123 ], [ 105.462799072265682, 12.473991394042969 ], [ 105.462051391601619, 12.473671913147029 ], [ 105.46170806884777, 12.473640441894531 ], [ 105.461486816406307, 12.474090576171989 ], [ 105.461448669433594, 12.47472000122076 ], [ 105.460578918457145, 12.475349426269531 ], [ 105.460319519043026, 12.475649833679256 ], [ 105.460067749023438, 12.475910186767692 ], [ 105.459800720214957, 12.476349830627498 ], [ 105.459426879882926, 12.47683143615734 ], [ 105.458938598632813, 12.477120399475154 ], [ 105.458366394042969, 12.477320671081543 ], [ 105.457847595214901, 12.477250099182129 ], [ 105.457168579101676, 12.476780891418457 ], [ 105.457015991210938, 12.476101875305233 ], [ 105.456962585449332, 12.475770950317383 ], [ 105.456542968750057, 12.475040435791016 ], [ 105.456062316894531, 12.475091934204215 ], [ 105.455780029296932, 12.475260734558162 ], [ 105.455162048339901, 12.475990295410213 ], [ 105.455192565918026, 12.476380348205623 ], [ 105.455368041992244, 12.476731300354061 ], [ 105.455810546875114, 12.477551460266113 ], [ 105.455711364746094, 12.477899551391658 ], [ 105.455535888671875, 12.478230476379508 ], [ 105.45477294921875, 12.47830963134777 ], [ 105.454536437988281, 12.478130340576229 ], [ 105.454208374023494, 12.478030204772892 ], [ 105.453887939453239, 12.477650642395133 ], [ 105.453559875488224, 12.477211952209416 ], [ 105.453689575195369, 12.476902008056584 ], [ 105.4539794921875, 12.476540565490779 ], [ 105.454322814941349, 12.476241111755371 ], [ 105.454589843750057, 12.475980758667106 ], [ 105.454917907714844, 12.475621223449707 ], [ 105.455116271972656, 12.475370407104549 ], [ 105.455291748046875, 12.475060462951717 ], [ 105.455276489257756, 12.474670410156364 ], [ 105.454856872558707, 12.474460601806641 ], [ 105.454292297363395, 12.474309921264648 ], [ 105.453811645507813, 12.474340438842773 ], [ 105.453392028808594, 12.474410057067928 ], [ 105.453010559082031, 12.474410057067928 ], [ 105.452629089355469, 12.47456073760992 ], [ 105.452568054199332, 12.476060867309684 ], [ 105.452659606933594, 12.477310180664119 ], [ 105.452560424804801, 12.477761268615836 ], [ 105.451782226562557, 12.478460311889762 ], [ 105.451377868652401, 12.47869968414318 ], [ 105.451141357421875, 12.478861808776855 ], [ 105.451171875000057, 12.479971885681209 ], [ 105.451606750488395, 12.4800901412965 ], [ 105.452301025390682, 12.479960441589355 ], [ 105.452850341796875, 12.479860305786246 ], [ 105.453376770019474, 12.479770660400334 ], [ 105.453872680664119, 12.479739189147892 ], [ 105.454750061035156, 12.479950904846191 ], [ 105.454589843750057, 12.480429649353027 ], [ 105.454147338867188, 12.480660438537541 ], [ 105.453598022460938, 12.480898857116642 ], [ 105.453025817871094, 12.481149673461971 ], [ 105.452239990234375, 12.48152065277111 ], [ 105.451660156249943, 12.481900215148869 ], [ 105.451271057128849, 12.482099533080998 ], [ 105.450950622558594, 12.482439994812012 ], [ 105.450897216796818, 12.483051300048828 ], [ 105.450759887695313, 12.483989715576172 ], [ 105.450851440429801, 12.484629631042537 ], [ 105.450508117675724, 12.485140800476074 ], [ 105.450210571289119, 12.485090255737362 ], [ 105.449729919433707, 12.484910011291504 ], [ 105.449386596679688, 12.484789848327694 ], [ 105.448677062988338, 12.484471321106014 ], [ 105.448089599609375, 12.484691619873161 ], [ 105.447647094726506, 12.485321044921932 ], [ 105.447418212890739, 12.486141204834041 ], [ 105.445877075195426, 12.487351417541504 ], [ 105.445816040039119, 12.48773193359375 ], [ 105.446228027343807, 12.488261222839412 ], [ 105.446617126464901, 12.488630294799805 ], [ 105.446990966796932, 12.488989830017033 ], [ 105.446830749511832, 12.489340782165641 ], [ 105.446441650390682, 12.489570617675895 ], [ 105.445861816406307, 12.489619255066032 ], [ 105.445182800292969, 12.489801406860465 ], [ 105.444702148437557, 12.490040779113883 ], [ 105.444000244140739, 12.490290641784668 ], [ 105.442558288574219, 12.490701675415096 ], [ 105.442298889160099, 12.4906005859375 ], [ 105.442268371582145, 12.490029335021973 ], [ 105.442687988281193, 12.489640235900879 ], [ 105.443290710449219, 12.489020347595215 ], [ 105.443862915039063, 12.488540649414119 ], [ 105.444183349609489, 12.48834133148199 ], [ 105.444351196289176, 12.487680435180778 ], [ 105.444183349609489, 12.487451553344783 ], [ 105.443962097168026, 12.487251281738395 ], [ 105.443580627441463, 12.487059593200797 ], [ 105.443176269531307, 12.486880302429256 ], [ 105.442741394042969, 12.487059593200797 ], [ 105.442199707031307, 12.48750019073492 ], [ 105.441619873046932, 12.487982749939022 ], [ 105.441207885742188, 12.488540649414119 ], [ 105.440940856933707, 12.489010810852051 ], [ 105.440505981445369, 12.490081787109432 ], [ 105.44024658203125, 12.490750312805233 ], [ 105.440597534179631, 12.49109077453619 ], [ 105.441360473632756, 12.491400718689022 ], [ 105.44168853759777, 12.491632461547908 ], [ 105.442108154296818, 12.491821289062557 ], [ 105.442520141601563, 12.492069244384822 ], [ 105.442550659179688, 12.49236965179449 ], [ 105.442436218261776, 12.492751121521053 ], [ 105.442001342773494, 12.492921829223633 ], [ 105.440696716308651, 12.492951393127498 ], [ 105.440208435058537, 12.49288272857666 ], [ 105.439872741699219, 12.492820739746207 ], [ 105.439598083496207, 12.492488861084041 ], [ 105.438972473144588, 12.491310119628849 ], [ 105.438583374023494, 12.490780830383358 ], [ 105.438362121582031, 12.489981651306152 ], [ 105.438339233398438, 12.489480018615723 ], [ 105.437728881835881, 12.488320350646973 ], [ 105.437255859375057, 12.488351821899414 ], [ 105.437019348144531, 12.488491058349723 ], [ 105.436256408691406, 12.488981246948185 ], [ 105.436119079589901, 12.489939689636287 ], [ 105.436080932617188, 12.49030971527111 ], [ 105.436042785644531, 12.49099063873291 ], [ 105.435760498046932, 12.491331100463867 ], [ 105.435096740722656, 12.491531372070313 ], [ 105.434700012207031, 12.491259574890137 ], [ 105.434249877929801, 12.491131782531795 ], [ 105.433532714843693, 12.490962028503532 ], [ 105.433151245117131, 12.490811347961539 ], [ 105.432846069335994, 12.490639686584473 ], [ 105.432632446289063, 12.489640235900879 ], [ 105.432876586914119, 12.489480018615723 ], [ 105.43316650390625, 12.489211082458496 ], [ 105.433715820312443, 12.488901138305664 ], [ 105.434356689453125, 12.488561630249137 ], [ 105.434738159179688, 12.488450050354118 ], [ 105.435607910156364, 12.488199234008846 ], [ 105.435661315917969, 12.487489700317496 ], [ 105.435386657714957, 12.487360954284782 ], [ 105.434677124023381, 12.487059593200797 ], [ 105.433860778808707, 12.486831665039119 ], [ 105.433296203613395, 12.486590385437125 ], [ 105.432586669921818, 12.486338615417537 ], [ 105.432006835937443, 12.486291885376033 ], [ 105.431549072265682, 12.486351013183537 ], [ 105.430839538574332, 12.486680984497127 ], [ 105.430412292480526, 12.486900329589957 ], [ 105.429702758789176, 12.487339973449764 ], [ 105.429290771484489, 12.48777961730957 ], [ 105.428436279296875, 12.488189697265682 ], [ 105.428199768066349, 12.488000869751033 ], [ 105.42767333984375, 12.48762035369873 ], [ 105.427459716796875, 12.486730575561523 ], [ 105.427375793457145, 12.486190795898438 ], [ 105.427200317382926, 12.485842704772892 ], [ 105.4268798828125, 12.485831260681209 ], [ 105.426559448242244, 12.485931396484489 ], [ 105.426040649414176, 12.486041069030705 ], [ 105.425163269042969, 12.486080169677734 ], [ 105.424346923828239, 12.486221313476563 ], [ 105.423782348632926, 12.486280441284293 ], [ 105.423316955566463, 12.48650074005127 ], [ 105.422737121582088, 12.48689079284668 ], [ 105.422050476074332, 12.487190246582088 ], [ 105.421333312988224, 12.487000465393066 ], [ 105.420860290527401, 12.486601829528865 ], [ 105.420120239257869, 12.486049652099723 ], [ 105.419837951660156, 12.485801696777344 ], [ 105.419532775878963, 12.485651016235352 ], [ 105.419166564941463, 12.485630989074764 ], [ 105.418586730957088, 12.485919952392578 ], [ 105.418258666992301, 12.486439704895133 ], [ 105.418212890625057, 12.48677921295166 ], [ 105.418167114257869, 12.487190246582088 ], [ 105.417732238769531, 12.487661361694336 ], [ 105.417442321777401, 12.487239837646484 ], [ 105.417228698730526, 12.486562728881836 ], [ 105.416915893554801, 12.486190795898438 ], [ 105.416763305664063, 12.485539436340332 ], [ 105.416831970214901, 12.484860420227108 ], [ 105.416969299316406, 12.484360694885311 ], [ 105.417129516601506, 12.484050750732479 ], [ 105.417411804199276, 12.483630180358887 ], [ 105.417480468750114, 12.483180999755973 ], [ 105.417480468750114, 12.482819557189941 ], [ 105.417343139648438, 12.482390403747559 ], [ 105.417137145996037, 12.482080459594727 ], [ 105.416549682617131, 12.482300758361873 ], [ 105.416122436523551, 12.482451438903865 ], [ 105.415687561035213, 12.48258113861084 ], [ 105.415351867675838, 12.482271194458008 ], [ 105.415229797363224, 12.482010841369629 ], [ 105.414833068847599, 12.481489181518668 ], [ 105.414428710937614, 12.481169700622502 ], [ 105.414207458496151, 12.4809312820434 ], [ 105.413879394531193, 12.480281829834041 ], [ 105.414047241211051, 12.479930877685661 ], [ 105.414253234863395, 12.47970008850109 ], [ 105.413879394531193, 12.479440689086971 ], [ 105.413177490234375, 12.479681968688965 ], [ 105.41269683837902, 12.479981422424373 ], [ 105.412178039550724, 12.480570793151855 ], [ 105.411880493164119, 12.481001853942871 ], [ 105.411552429199332, 12.481471061706486 ], [ 105.411163330078239, 12.481680870056209 ], [ 105.410881042480469, 12.481610298156795 ], [ 105.410606384277457, 12.48142147064209 ], [ 105.410430908203239, 12.480780601501579 ], [ 105.410362243652401, 12.480390548705998 ], [ 105.410232543945426, 12.47987079620367 ], [ 105.409973144531307, 12.479599952697811 ], [ 105.409622192382869, 12.479860305786246 ], [ 105.408851623535213, 12.480381965637207 ], [ 105.408309936523551, 12.4809312820434 ], [ 105.407859802246151, 12.481270790100098 ], [ 105.407508850097713, 12.481610298156795 ], [ 105.407409667968693, 12.482300758361873 ], [ 105.407775878906193, 12.482819557189941 ], [ 105.408065795898494, 12.483791351318359 ], [ 105.407669067382869, 12.483892440795898 ], [ 105.40738677978527, 12.483709335327205 ], [ 105.406967163086051, 12.483420372009391 ], [ 105.406349182128963, 12.483800888061637 ], [ 105.406188964843807, 12.484391212463436 ], [ 105.406372070312557, 12.484871864318848 ], [ 105.406600952148551, 12.485191345214957 ], [ 105.407180786132926, 12.485811233520621 ], [ 105.406791687011832, 12.485811233520621 ], [ 105.406471252441406, 12.485710144043026 ], [ 105.406143188476619, 12.485539436340332 ], [ 105.405632019043082, 12.485250473022518 ], [ 105.405265808105582, 12.484750747680664 ], [ 105.405006408691463, 12.484561920166016 ], [ 105.404663085937557, 12.484550476074276 ], [ 105.404327392578239, 12.484850883484 ], [ 105.404121398925895, 12.485271453857536 ], [ 105.403831481933594, 12.485749244690055 ], [ 105.403457641601563, 12.485849380493164 ], [ 105.402778625488395, 12.485710144043026 ], [ 105.401931762695313, 12.485539436340332 ], [ 105.401321411132813, 12.485480308532772 ], [ 105.400787353515625, 12.485480308532772 ], [ 105.400321960449332, 12.485770225524902 ], [ 105.39994049072277, 12.485731124877873 ], [ 105.399742126464957, 12.485321044921932 ], [ 105.399696350097713, 12.484430313110408 ], [ 105.399513244628963, 12.483540534973201 ], [ 105.399421691894531, 12.482640266418571 ], [ 105.399192810058537, 12.481879234314022 ], [ 105.398818969726506, 12.481270790100098 ], [ 105.398300170898438, 12.48077201843256 ], [ 105.397605895996151, 12.480660438537541 ], [ 105.396896362304801, 12.480590820312614 ], [ 105.396575927734375, 12.480570793151855 ], [ 105.39617919921875, 12.480511665344352 ], [ 105.395698547363338, 12.48036098480236 ], [ 105.395057678222656, 12.48001861572277 ], [ 105.394508361816463, 12.479570388793945 ], [ 105.394050598144474, 12.479080200195426 ], [ 105.393280029296818, 12.478750228881893 ], [ 105.392539978027344, 12.478631019592342 ], [ 105.392349243164063, 12.478951454162598 ], [ 105.392280578613395, 12.479360580444393 ], [ 105.392318725586051, 12.479721069335938 ], [ 105.392349243164063, 12.480590820312614 ], [ 105.392471313476676, 12.48142147064209 ], [ 105.392936706542969, 12.482320785522461 ], [ 105.393348693847656, 12.483051300048828 ], [ 105.393898010253906, 12.483820915222168 ], [ 105.394607543945426, 12.484499931335563 ], [ 105.395523071289176, 12.485039710998478 ], [ 105.396347045898381, 12.485630989074764 ], [ 105.396827697753963, 12.486129760742301 ], [ 105.3973388671875, 12.486880302429256 ], [ 105.397628784179801, 12.48762035369873 ], [ 105.397697448730469, 12.488199234008846 ], [ 105.397567749023494, 12.488630294799805 ], [ 105.397308349609375, 12.488960266113338 ], [ 105.396812438964901, 12.489191055297908 ], [ 105.396125793457145, 12.489020347595215 ], [ 105.395469665527401, 12.488540649414119 ], [ 105.394348144531307, 12.487690925598201 ], [ 105.393341064453125, 12.486900329589957 ], [ 105.392280578613395, 12.485860824585018 ], [ 105.391616821289063, 12.485250473022518 ], [ 105.391265869140682, 12.484990119934082 ], [ 105.391098022460994, 12.484419822692814 ], [ 105.390701293945369, 12.483800888061637 ], [ 105.390121459960994, 12.483691215515194 ], [ 105.389541625976563, 12.483650207519645 ], [ 105.388969421386719, 12.483738899231014 ], [ 105.388290405273551, 12.484089851379451 ], [ 105.387886047363338, 12.484550476074276 ], [ 105.387512207031364, 12.4850111007691 ], [ 105.387100219726619, 12.485659599304142 ], [ 105.386405944824332, 12.486970901489201 ], [ 105.385902404785156, 12.487982749939022 ], [ 105.385337829589844, 12.488689422607536 ], [ 105.384902954101506, 12.489211082458496 ], [ 105.38449859619152, 12.489240646362362 ], [ 105.383850097656307, 12.489358901977596 ], [ 105.383201599121094, 12.48928165435791 ], [ 105.382553100586051, 12.489061355590763 ], [ 105.38217926025402, 12.488821029663086 ], [ 105.381622314453239, 12.488220214843864 ], [ 105.381027221679801, 12.487641334533748 ], [ 105.380218505859432, 12.486900329589957 ], [ 105.379562377929631, 12.486121177673454 ], [ 105.379051208496094, 12.48622989654541 ], [ 105.378471374511719, 12.486400604248161 ] ] ] ] } }
]
}
