{
"type": "FeatureCollection",
"name": "hien_trang_tuyen_duong_sat_WGS84",
"crs": { "type": "name", "properties": { "name": "urn:ogc:def:crs:OGC:1.3:CRS84" } },
"features": [
{ "type": "Feature", "properties": { "gid": 1, "objectid": 2.0, "madoituong": "T79-SH02-00000001", "ten": "Đường sắt Quốc Gia", "phanloai": "Đường sắt quốc gia không phải là đường sắt tốc độ cao", "chieudai": 0.0, "khoduongsa": "1000", "loaihientr": "Đối tượng hiện trạng dự kiến được nâng cấp, điều chỉnh trong quy hoạch", "nam": 2022.0, "nguon": "Hệ thống bản đồ quy hoạch Thành phố Hồ Chí Minh thời kỳ 2021 - 2030, tầm nhìn đến năm 205", "shape_leng": 14512.717032099999 }, "geometry": { "type": "MultiLineString", "coordinates": [ [ [ 106.751646734484723, 10.863225442985039 ], [ 106.751559258238657, 10.859547201794783 ], [ 106.751537067667115, 10.857753436812308 ], [ 106.751509613670621, 10.856192678045034 ], [ 106.751467231313697, 10.855199978813406 ], [ 106.751350482042042, 10.854629539878841 ], [ 106.750992080704819, 10.85378592027252 ], [ 106.750196493077468, 10.852553949075917 ], [ 106.74928365597512, 10.850921385363044 ], [ 106.748224621522766, 10.84903620557426 ], [ 106.746816578870892, 10.846663174586723 ], [ 106.745769738900748, 10.844864034350165 ], [ 106.744937738815395, 10.84342327647451 ], [ 106.744573772177191, 10.842805874795276 ], [ 106.744346344839286, 10.842485955008888 ], [ 106.744004747470058, 10.842115673977021 ], [ 106.74360265805187, 10.841752602706094 ], [ 106.743224188341827, 10.841486939006304 ], [ 106.742766437127884, 10.841239713302457 ], [ 106.742500300117669, 10.841114397578513 ], [ 106.741634625921435, 10.840853994103115 ], [ 106.73909469581011, 10.840202205950098 ], [ 106.737421656919565, 10.839779564286442 ], [ 106.73578849069942, 10.839361169407335 ], [ 106.734727275259146, 10.839049476389865 ], [ 106.734477715405234, 10.838954836167495 ], [ 106.734048017178608, 10.838764696949047 ], [ 106.733699908574224, 10.838586523762654 ], [ 106.733279264269072, 10.83834863966031 ], [ 106.732885182292634, 10.83810251627941 ], [ 106.732241973773426, 10.837642458772748 ], [ 106.731315012772768, 10.836876670639922 ], [ 106.729720789542583, 10.835558099295405 ], [ 106.727981980410632, 10.834156517618576 ], [ 106.726188784901936, 10.832695823587136 ], [ 106.725080619827992, 10.831786775203581 ], [ 106.724153973876938, 10.831030870777065 ], [ 106.72314975960316, 10.830213328415871 ], [ 106.72278228870583, 10.829926585136908 ], [ 106.722432051157995, 10.829658128487837 ], [ 106.721957745021101, 10.82935167445053 ], [ 106.721154386173367, 10.828963118957043 ], [ 106.720837544924521, 10.828815415788005 ], [ 106.720364812307807, 10.828636431942526 ], [ 106.719971458188084, 10.828507573334296 ], [ 106.719458320676921, 10.828375286822553 ], [ 106.71818546502125, 10.828067376981494 ], [ 106.716708857687749, 10.827726124099083 ], [ 106.715523800881712, 10.827446170834545 ], [ 106.714254582098405, 10.827104629446389 ], [ 106.709676336319419, 10.825987905062197 ], [ 106.708293549076672, 10.825648193435589 ], [ 106.706776788483381, 10.825306994337828 ], [ 106.703234176229287, 10.824408981368473 ], [ 106.702062944977143, 10.82413302401339 ], [ 106.700006581825022, 10.823638961947767 ], [ 106.69871389708743, 10.823320659509763 ], [ 106.697186570417969, 10.822942291137405 ], [ 106.694519636881623, 10.822260015784163 ], [ 106.692787867091596, 10.821867147449039 ], [ 106.690752659922154, 10.821344980720065 ], [ 106.689565244725856, 10.821088774672724 ], [ 106.688960385393358, 10.820935789165908 ], [ 106.688582754972543, 10.820754946706749 ], [ 106.68806915000134, 10.820495262643837 ], [ 106.687543390956307, 10.820111395661057 ], [ 106.687192690250441, 10.819755597692815 ], [ 106.68677802131873, 10.81925544995161 ], [ 106.686502163633847, 10.81879265664814 ], [ 106.686139965071291, 10.818226708347876 ], [ 106.685717024930241, 10.817400823402295 ], [ 106.685146307576019, 10.816352512485595 ], [ 106.684131490495659, 10.814478782130772 ], [ 106.682771037864214, 10.811975806007194 ], [ 106.681899898247636, 10.810367151477452 ], [ 106.681155254852683, 10.809022905183221 ], [ 106.680368734004659, 10.807581494191638 ], [ 106.679614022236024, 10.806171792909838 ], [ 106.67863162876273, 10.804434206942334 ], [ 106.678298252366886, 10.803799728004636 ], [ 106.677981407546241, 10.803207910374029 ], [ 106.677566639660711, 10.802402869054557 ], [ 106.677359403809561, 10.802006845113647 ], [ 106.676897216431527, 10.801090748372133 ], [ 106.676145687526301, 10.799562276188022 ], [ 106.675562311134627, 10.798390441384987 ], [ 106.674602871927746, 10.796507683235125 ], [ 106.673321735162972, 10.794018830624719 ], [ 106.672587677963321, 10.792512500960894 ], [ 106.672095078728958, 10.791446097805311 ], [ 106.671561806351804, 10.790502468391828 ], [ 106.671207183750241, 10.789693977187417 ], [ 106.671042702620582, 10.789087492897089 ], [ 106.670905022220836, 10.788519008465423 ], [ 106.670701581016985, 10.786786318358448 ], [ 106.670800364391823, 10.7862041670852 ], [ 106.671052462707422, 10.785672639749784 ], [ 106.671221112111013, 10.785382916439401 ], [ 106.67149532816218, 10.785068682823098 ], [ 106.671910859138549, 10.784732892623838 ], [ 106.672270615085054, 10.784472587120446 ], [ 106.672799809016979, 10.784171795365104 ], [ 106.673323804050057, 10.783895878862129 ], [ 106.675916459260407, 10.782473235466647 ], [ 106.678124727782063, 10.78114151079699 ] ] ] } }
]
}
